{"type":"FeatureCollection","name":"Ontario public health unit boundaries (simplified)","source":"Ontario Ministry of Health Public Health Unit Boundary, Land Information Ontario open data. Open Government Licence - Ontario. Simplified for display only; not for legal or analytic use.","features":[{"type":"Feature","properties":{"id":2226,"name":"Algoma Public Health"},"geometry":{"type":"MultiPolygon","coordinates":[[[[-82.639,49.046],[-82.639,49.064],[-84.014,49.073],[-85.179,49.068],[-85.333,49.055],[-85.33,47.949],[-84.988,47.963],[-84.932,47.96],[-84.914,47.942],[-84.9,47.962],[-84.845,47.945],[-84.853,47.934],[-84.837,47.915],[-84.907,47.854],[-84.939,47.844],[-84.95,47.82],[-84.921,47.811],[-84.935,47.806],[-84.918,47.798],[-84.919,47.774],[-84.95,47.732],[-84.979,47.732],[-85.011,47.706],[-84.988,47.695],[-84.979,47.669],[-85.022,47.635],[-85.012,47.606],[-85.033,47.611],[-85.037,47.599],[-84.953,47.561],[-84.961,47.538],[-84.927,47.516],[-84.793,47.474],[-84.73,47.433],[-84.703,47.401],[-84.706,47.372],[-84.647,47.36],[-84.585,47.299],[-84.588,47.282],[-84.654,47.242],[-84.665,47.212],[-84.712,47.185],[-84.695,47.162],[-84.74,47.142],[-84.711,47.102],[-84.784,47.041],[-84.77,47.018],[-84.793,47.003],[-84.779,46.974],[-84.724,46.952],[-84.702,46.968],[-84.668,46.962],[-84.654,46.918],[-84.617,46.889],[-84.596,46.905],[-84.604,46.928],[-84.567,46.946],[-84.517,46.919],[-84.489,46.937],[-84.449,46.934],[-84.354,46.875],[-84.404,46.817],[-84.469,46.848],[-84.503,46.822],[-84.535,46.832],[-84.56,46.822],[-84.54,46.801],[-84.562,46.762],[-84.545,46.743],[-84.577,46.736],[-84.565,46.689],[-84.52,46.698],[-84.508,46.745],[-84.482,46.762],[-84.429,46.734],[-84.45,46.713],[-84.421,46.69],[-84.491,46.661],[-84.598,46.57],[-84.59,46.53],[-84.536,46.506],[-84.525,46.474],[-84.473,46.464],[-84.462,46.477],[-84.484,46.49],[-84.418,46.514],[-84.402,46.502],[-84.381,46.522],[-84.271,46.497],[-84.226,46.539],[-84.182,46.55],[-84.169,46.545],[-84.177,46.531],[-84.112,46.527],[-84.113,46.513],[-84.077,46.494],[-84.118,46.403],[-84.108,46.406],[-84.131,46.398],[-84.122,46.384],[-84.133,46.369],[-84.048,46.314],[-83.947,46.324],[-83.922,46.344],[-83.927,46.333],[-83.877,46.329],[-83.883,46.312],[-83.851,46.292],[-83.782,46.282],[-83.794,46.298],[-83.749,46.297],[-83.75,46.28],[-83.726,46.289],[-83.678,46.269],[-83.612,46.286],[-83.566,46.26],[-83.569,46.237],[-83.53,46.259],[-83.285,46.217],[-83.292,46.207],[-83.162,46.199],[-83.168,46.19],[-83.149,46.183],[-83.094,46.196],[-83.057,46.175],[-83.03,46.193],[-83.016,46.176],[-82.954,46.188],[-82.834,46.176],[-82.627,46.21],[-82.617,46.203],[-82.676,46.193],[-82.685,46.182],[-82.675,46.181],[-82.705,46.167],[-82.674,46.172],[-82.693,46.161],[-82.67,46.157],[-82.526,46.169],[-82.466,46.201],[-82.447,46.198],[-82.463,46.176],[-82.454,46.185],[-82.451,46.172],[-82.424,46.189],[-82.319,46.187],[-82.327,46.178],[-82.315,46.171],[-82.37,46.167],[-82.374,46.15],[-82.362,46.159],[-82.373,46.164],[-82.352,46.167],[-82.312,46.139],[-82.25,46.15],[-82.233,46.146],[-82.262,46.144],[-82.195,46.13],[-82.214,46.142],[-82.173,46.112],[-82.15,46.116],[-82.15,46.1],[-82.134,46.115],[-82.056,46.101],[-82.057,46.177],[-82.312,46.186],[-82.313,46.278],[-82.192,46.278],[-82.193,46.367],[-82.068,46.367],[-82.069,46.625],[-81.945,46.625],[-81.95,46.976],[-82.579,46.977],[-82.577,47.236],[-83.975,47.236],[-83.974,47.934],[-84.016,47.934],[-84.015,48.45],[-82.641,48.451],[-82.639,49.046]]],[[[-82.335,46.073],[-82.338,46.077],[-82.363,46.043],[-82.323,46.056],[-82.335,46.073]]],[[[-82.389,46.074],[-82.391,46.088],[-82.433,46.07],[-82.403,46.062],[-82.389,46.074]]],[[[-82.148,46.063],[-82.16,46.062],[-82.174,46.043],[-82.159,46.033],[-82.114,46.045],[-82.148,46.063]]],[[[-82.306,46.121],[-82.317,46.12],[-82.308,46.1],[-82.265,46.107],[-82.306,46.121]]],[[[-82.57,46.152],[-82.615,46.149],[-82.631,46.144],[-82.544,46.136],[-82.57,46.152]]],[[[-82.376,46.149],[-82.383,46.149],[-82.512,46.137],[-82.443,46.123],[-82.369,46.131],[-82.376,46.149]]],[[[-83.946,46.318],[-83.95,46.319],[-83.959,46.297],[-83.992,46.312],[-84.049,46.288],[-84.076,46.297],[-84.078,46.312],[-84.115,46.312],[-84.095,46.256],[-84.104,46.239],[-84.081,46.225],[-84.072,46.191],[-83.994,46.153],[-83.975,46.131],[-84.001,46.125],[-83.972,46.119],[-83.983,46.113],[-83.949,46.091],[-83.945,46.062],[-83.877,46.094],[-83.897,46.103],[-83.878,46.132],[-83.889,46.153],[-83.872,46.16],[-83.813,46.129],[-83.829,46.154],[-83.811,46.139],[-83.82,46.166],[-83.787,46.184],[-83.807,46.202],[-83.773,46.214],[-83.784,46.229],[-83.81,46.218],[-83.841,46.238],[-83.84,46.265],[-83.881,46.255],[-83.924,46.296],[-83.956,46.288],[-83.921,46.303],[-83.946,46.318]]],[[[-84.728,46.719],[-84.735,46.719],[-84.741,46.686],[-84.718,46.645],[-84.705,46.654],[-84.728,46.719]]],[[[-84.512,46.914],[-84.522,46.916],[-84.544,46.9],[-84.547,46.872],[-84.524,46.864],[-84.487,46.884],[-84.427,46.885],[-84.451,46.898],[-84.484,46.889],[-84.512,46.914]]],[[[-84.745,47.326],[-84.755,47.326],[-84.745,47.298],[-84.715,47.32],[-84.745,47.326]]],[[[-84.928,47.47],[-84.947,47.458],[-84.935,47.439],[-84.913,47.462],[-84.928,47.47]]]]}},{"type":"Feature","properties":{"id":2230,"name":"Durham Region Health Department"},"geometry":{"type":"MultiPolygon","coordinates":[[[[-79.075,44.5],[-79.082,44.516],[-79.14,44.514],[-79.161,44.472],[-79.252,44.453],[-79.238,44.448],[-79.156,44.263],[-79.328,44.223],[-79.152,43.814],[-79.115,43.795],[-78.935,43.851],[-78.714,43.867],[-78.617,43.899],[-78.482,43.897],[-78.437,43.912],[-78.516,44.099],[-78.693,44.058],[-78.77,44.227],[-78.842,44.169],[-78.852,44.213],[-78.883,44.217],[-78.911,44.193],[-78.922,44.154],[-79.075,44.5]]]]}},{"type":"Feature","properties":{"id":2233,"name":"Grey Bruce Public Health"},"geometry":{"type":"MultiPolygon","coordinates":[[[[-81.303,45.247],[-81.344,45.24],[-81.579,45.24],[-81.586,45.252],[-81.643,45.248],[-81.635,45.264],[-81.655,45.267],[-81.729,45.221],[-81.709,45.209],[-81.696,45.218],[-81.702,45.198],[-81.653,45.197],[-81.664,45.184],[-81.619,45.194],[-81.609,45.179],[-81.578,45.192],[-81.595,45.149],[-81.575,45.156],[-81.58,45.134],[-81.528,45.115],[-81.509,45.095],[-81.516,45.077],[-81.482,45.067],[-81.496,45.055],[-81.464,45.048],[-81.454,45.004],[-81.43,44.99],[-81.437,44.971],[-81.415,44.995],[-81.401,44.999],[-81.403,44.978],[-81.367,45.001],[-81.377,44.967],[-81.344,44.965],[-81.357,44.963],[-81.373,44.906],[-81.35,44.906],[-81.368,44.896],[-81.346,44.862],[-81.32,44.875],[-81.329,44.84],[-81.285,44.806],[-81.3,44.785],[-81.277,44.756],[-81.288,44.733],[-81.278,44.737],[-81.287,44.717],[-81.274,44.7],[-81.307,44.691],[-81.271,44.632],[-81.295,44.58],[-81.388,44.49],[-81.407,44.435],[-81.483,44.418],[-81.554,44.358],[-81.554,44.333],[-81.579,44.343],[-81.598,44.333],[-81.609,44.315],[-81.59,44.293],[-81.609,44.27],[-81.615,44.217],[-81.639,44.176],[-81.743,44.091],[-81.754,44.063],[-81.384,43.908],[-81.368,43.927],[-80.991,43.987],[-80.836,44.005],[-80.827,43.968],[-80.754,43.977],[-80.747,44.002],[-80.716,43.981],[-80.375,44.039],[-80.398,44.135],[-80.361,44.167],[-80.423,44.2],[-80.411,44.215],[-80.229,44.253],[-80.293,44.533],[-80.313,44.522],[-80.406,44.54],[-80.51,44.596],[-80.589,44.608],[-80.625,44.641],[-80.636,44.716],[-80.654,44.723],[-80.753,44.725],[-80.796,44.704],[-80.945,44.578],[-80.946,44.617],[-80.888,44.737],[-80.906,44.794],[-80.992,44.809],[-81.14,44.747],[-81.132,44.775],[-81.021,44.85],[-81.005,44.877],[-81.03,44.893],[-81.021,44.914],[-80.96,44.956],[-80.989,44.973],[-81.005,44.956],[-81.035,44.967],[-81.057,44.945],[-81.024,44.926],[-81.062,44.914],[-81.078,44.892],[-81.101,44.896],[-81.087,44.91],[-81.1,44.922],[-81.159,44.906],[-81.116,44.94],[-81.12,44.96],[-81.214,44.961],[-81.22,44.973],[-81.195,44.998],[-81.219,45.009],[-81.252,44.988],[-81.277,45.021],[-81.262,45.077],[-81.281,45.117],[-81.336,45.142],[-81.332,45.183],[-81.284,45.227],[-81.303,45.247]]],[[[-80.97,44.852],[-80.99,44.844],[-80.982,44.833],[-80.997,44.825],[-80.967,44.828],[-80.97,44.852]]],[[[-80.901,44.859],[-80.913,44.858],[-80.924,44.828],[-80.893,44.831],[-80.901,44.859]]],[[[-80.97,44.905],[-80.979,44.905],[-80.971,44.867],[-80.958,44.891],[-80.97,44.905]]],[[[-81.738,45.328],[-81.745,45.319],[-81.776,45.313],[-81.733,45.314],[-81.751,45.312],[-81.714,45.285],[-81.696,45.293],[-81.738,45.328]]]]}},{"type":"Feature","properties":{"id":2236,"name":"Halton Region Health Department"},"geometry":{"type":"MultiPolygon","coordinates":[[[[-79.951,43.721],[-79.969,43.734],[-80.16,43.561],[-79.86,43.347],[-79.913,43.308],[-79.886,43.288],[-79.812,43.313],[-79.8,43.298],[-79.8,43.32],[-79.715,43.373],[-79.625,43.481],[-79.682,43.523],[-79.697,43.508],[-79.778,43.563],[-79.81,43.588],[-79.788,43.601],[-79.951,43.721]]]]}},{"type":"Feature","properties":{"id":2237,"name":"Hamilton Public Health Services"},"geometry":{"type":"MultiPolygon","coordinates":[[[[-79.86,43.347],[-80.034,43.471],[-80.084,43.435],[-80.079,43.418],[-80.205,43.398],[-80.188,43.343],[-80.248,43.334],[-80.2,43.211],[-79.754,43.051],[-79.71,43.156],[-79.659,43.144],[-79.622,43.226],[-79.749,43.247],[-79.792,43.3],[-79.788,43.263],[-79.803,43.28],[-79.812,43.263],[-79.805,43.28],[-79.826,43.285],[-79.833,43.27],[-79.884,43.272],[-79.913,43.308],[-79.86,43.347]]]]}},{"type":"Feature","properties":{"id":2240,"name":"Chatham-Kent Public Health"},"geometry":{"type":"MultiPolygon","coordinates":[[[[-81.835,42.649],[-81.873,42.651],[-82.009,42.651],[-82.024,42.625],[-82.484,42.631],[-82.478,42.596],[-82.421,42.573],[-82.42,42.542],[-82.402,42.531],[-82.441,42.5],[-82.406,42.49],[-82.418,42.487],[-82.416,42.369],[-82.402,42.378],[-82.454,42.319],[-82.43,42.297],[-82.451,42.262],[-82.433,42.247],[-82.437,42.194],[-82.456,42.194],[-82.463,42.061],[-82.383,42.126],[-82.094,42.247],[-82.004,42.265],[-81.909,42.253],[-81.941,42.278],[-81.92,42.307],[-81.905,42.305],[-81.914,42.313],[-81.873,42.325],[-81.877,42.337],[-81.844,42.334],[-81.881,42.258],[-81.857,42.303],[-81.878,42.256],[-81.846,42.259],[-81.839,42.339],[-81.817,42.38],[-81.669,42.473],[-81.834,42.607],[-81.835,42.649]]]]}},{"type":"Feature","properties":{"id":2242,"name":"Lambton Public Health"},"geometry":{"type":"MultiPolygon","coordinates":[[[[-81.746,43.312],[-81.76,43.319],[-81.906,43.234],[-81.985,43.209],[-82.017,43.216],[-82.022,43.172],[-82.097,43.111],[-82.149,43.093],[-82.152,43.073],[-82.177,43.056],[-82.419,43.002],[-82.411,42.968],[-82.459,42.906],[-82.478,42.805],[-82.463,42.76],[-82.506,42.665],[-82.5,42.637],[-82.578,42.564],[-82.563,42.514],[-82.579,42.505],[-82.535,42.504],[-82.522,42.489],[-82.509,42.509],[-82.536,42.525],[-82.518,42.534],[-82.508,42.509],[-82.473,42.515],[-82.5,42.496],[-82.456,42.498],[-82.454,42.482],[-82.435,42.49],[-82.437,42.513],[-82.402,42.53],[-82.42,42.542],[-82.421,42.573],[-82.478,42.596],[-82.484,42.631],[-82.024,42.625],[-82.009,42.651],[-81.835,42.651],[-81.835,42.843],[-81.79,42.816],[-81.789,43.066],[-81.808,43.069],[-81.824,43.104],[-81.796,43.123],[-81.816,43.154],[-81.806,43.167],[-81.817,43.21],[-81.798,43.224],[-81.782,43.212],[-81.746,43.312]]],[[[-82.586,42.548],[-82.587,42.551],[-82.626,42.535],[-82.59,42.52],[-82.609,42.527],[-82.591,42.518],[-82.596,42.493],[-82.571,42.519],[-82.586,42.548]]],[[[-82.624,42.555],[-82.637,42.555],[-82.678,42.523],[-82.607,42.546],[-82.624,42.555]]]]}},{"type":"Feature","properties":{"id":2244,"name":"Middlesex-London Health Unit"},"geometry":{"type":"MultiPolygon","coordinates":[[[[-81.227,43.205],[-81.431,43.293],[-81.469,43.289],[-81.465,43.271],[-81.774,43.238],[-81.783,43.212],[-81.798,43.224],[-81.817,43.21],[-81.806,43.166],[-81.816,43.154],[-81.796,43.123],[-81.824,43.104],[-81.808,43.069],[-81.789,43.066],[-81.79,42.816],[-81.835,42.843],[-81.835,42.608],[-81.806,42.61],[-81.774,42.648],[-81.737,42.662],[-81.702,42.639],[-81.717,42.666],[-81.682,42.673],[-81.686,42.697],[-81.628,42.683],[-81.6,42.712],[-81.603,42.727],[-81.566,42.734],[-81.569,42.746],[-81.542,42.739],[-81.517,42.766],[-81.474,42.753],[-81.481,42.784],[-81.419,42.774],[-81.435,42.794],[-81.115,42.871],[-81.12,42.891],[-80.899,42.913],[-80.923,43.001],[-80.947,43.01],[-80.984,42.986],[-81.023,43.05],[-81.038,43.046],[-81.132,43.231],[-81.227,43.205]]]]}},{"type":"Feature","properties":{"id":2246,"name":"Niagara Region Public Health"},"geometry":{"type":"MultiPolygon","coordinates":[[[[-79.072,43.259],[-79.076,43.262],[-79.131,43.258],[-79.205,43.226],[-79.218,43.245],[-79.228,43.22],[-79.332,43.181],[-79.412,43.198],[-79.532,43.196],[-79.62,43.227],[-79.659,43.144],[-79.71,43.156],[-79.754,43.051],[-79.512,42.965],[-79.438,42.876],[-79.382,42.861],[-79.346,42.855],[-79.303,42.878],[-79.255,42.88],[-79.251,42.867],[-79.245,42.879],[-79.218,42.867],[-79.165,42.876],[-79.118,42.861],[-79.095,42.836],[-79.084,42.861],[-78.932,42.884],[-78.909,42.908],[-78.916,42.935],[-79.024,42.981],[-79.02,43.048],[-79.079,43.075],[-79.059,43.108],[-79.073,43.122],[-79.043,43.143],[-79.058,43.251],[-79.072,43.259]]]]}},{"type":"Feature","properties":{"id":2247,"name":"North Bay Parry Sound District Health Unit"},"geometry":{"type":"MultiPolygon","coordinates":[[[[-79.344,47.0],[-79.354,47.014],[-79.41,47.06],[-79.632,47.058],[-79.626,46.799],[-79.757,46.799],[-79.759,46.711],[-79.885,46.712],[-79.884,46.799],[-80.227,46.799],[-80.224,46.972],[-80.291,46.972],[-80.292,46.711],[-80.355,46.711],[-80.358,46.643],[-80.359,46.625],[-80.292,46.625],[-80.306,46.105],[-80.176,46.105],[-80.143,46.082],[-80.189,46.079],[-80.175,46.066],[-80.292,46.037],[-80.475,46.037],[-80.583,46.018],[-80.556,45.892],[-80.674,45.889],[-80.695,45.885],[-80.694,45.872],[-80.736,45.872],[-80.731,45.855],[-80.714,45.863],[-80.709,45.846],[-80.685,45.842],[-80.725,45.836],[-80.714,45.817],[-80.658,45.811],[-80.683,45.803],[-80.651,45.796],[-80.659,45.779],[-80.616,45.767],[-80.5,45.774],[-80.626,45.765],[-80.657,45.732],[-80.623,45.74],[-80.649,45.724],[-80.621,45.728],[-80.637,45.72],[-80.62,45.703],[-80.576,45.69],[-80.611,45.679],[-80.531,45.661],[-80.535,45.63],[-80.491,45.623],[-80.531,45.602],[-80.507,45.599],[-80.526,45.596],[-80.507,45.594],[-80.522,45.584],[-80.479,45.608],[-80.507,45.58],[-80.49,45.581],[-80.517,45.568],[-80.495,45.576],[-80.505,45.559],[-80.41,45.587],[-80.41,45.605],[-80.455,45.615],[-80.444,45.619],[-80.414,45.625],[-80.423,45.613],[-80.376,45.596],[-80.42,45.579],[-80.382,45.57],[-80.397,45.461],[-80.383,45.436],[-80.352,45.428],[-80.343,45.44],[-80.332,45.425],[-80.31,45.424],[-80.317,45.437],[-80.293,45.423],[-80.318,45.418],[-80.3,45.356],[-80.246,45.362],[-80.235,45.342],[-80.209,45.353],[-80.169,45.333],[-80.16,45.339],[-80.18,45.363],[-80.223,45.386],[-80.187,45.371],[-80.239,45.398],[-80.212,45.401],[-80.236,45.404],[-80.185,45.403],[-80.222,45.394],[-80.189,45.377],[-80.214,45.397],[-80.172,45.381],[-80.172,45.395],[-80.161,45.391],[-80.17,45.405],[-80.077,45.403],[-80.074,45.379],[-80.057,45.38],[-80.06,45.356],[-80.031,45.337],[-80.042,45.289],[-80.145,45.249],[-80.127,45.214],[-80.095,45.238],[-80.084,45.229],[-80.096,45.219],[-80.085,45.213],[-80.134,45.201],[-80.117,45.196],[-80.118,45.178],[-80.107,45.192],[-80.112,45.181],[-80.096,45.181],[-80.086,45.2],[-80.109,45.201],[-80.068,45.218],[-80.056,45.212],[-80.072,45.199],[-80.055,45.203],[-80.048,45.174],[-80.021,45.197],[-80.03,45.176],[-80.015,45.17],[-80.015,45.148],[-79.99,45.154],[-80.009,45.168],[-80.003,45.18],[-79.971,45.163],[-79.996,45.149],[-79.963,45.13],[-79.97,45.116],[-79.606,45.215],[-79.673,45.334],[-78.928,45.533],[-79.055,45.765],[-79.13,45.752],[-79.258,45.994],[-79.094,46.04],[-79.158,46.16],[-78.987,46.205],[-78.978,46.188],[-78.798,46.234],[-78.761,46.165],[-78.589,46.212],[-78.513,46.072],[-78.328,46.121],[-78.412,46.273],[-78.397,46.274],[-78.403,46.293],[-78.697,46.32],[-78.728,46.342],[-78.727,46.383],[-78.917,46.482],[-78.99,46.549],[-79.015,46.627],[-79.094,46.688],[-79.171,46.825],[-79.214,46.833],[-79.277,46.895],[-79.33,46.957],[-79.344,47.0]]],[[[-79.986,45.131],[-79.992,45.127],[-80.05,45.109],[-80.087,45.123],[-80.11,45.114],[-80.052,45.095],[-79.971,45.115],[-79.986,45.131]]],[[[-80.055,45.177],[-80.06,45.173],[-80.085,45.151],[-80.046,45.16],[-80.056,45.143],[-80.006,45.13],[-80.027,45.143],[-80.029,45.17],[-80.052,45.162],[-80.055,45.177]]],[[[-80.086,45.278],[-80.138,45.267],[-80.162,45.236],[-80.144,45.26],[-80.122,45.253],[-80.086,45.278]]],[[[-80.069,45.344],[-80.069,45.346],[-80.097,45.341],[-80.106,45.316],[-80.093,45.308],[-80.185,45.329],[-80.206,45.32],[-80.226,45.296],[-80.22,45.273],[-80.206,45.28],[-80.203,45.264],[-80.216,45.264],[-80.199,45.264],[-80.196,45.236],[-80.174,45.244],[-80.175,45.223],[-80.151,45.261],[-80.166,45.267],[-80.14,45.271],[-80.152,45.279],[-80.085,45.291],[-80.089,45.281],[-80.07,45.291],[-80.086,45.298],[-80.043,45.316],[-80.059,45.323],[-80.045,45.339],[-80.069,45.344]]],[[[-80.336,45.424],[-80.353,45.423],[-80.337,45.411],[-80.352,45.416],[-80.359,45.4],[-80.333,45.374],[-80.33,45.391],[-80.316,45.388],[-80.336,45.424]]],[[[-80.411,45.529],[-80.416,45.528],[-80.482,45.517],[-80.471,45.504],[-80.45,45.515],[-80.464,45.502],[-80.435,45.489],[-80.421,45.503],[-80.432,45.517],[-80.411,45.529]]],[[[-80.539,45.655],[-80.574,45.643],[-80.537,45.628],[-80.539,45.655]]],[[[-80.548,45.665],[-80.554,45.664],[-80.578,45.662],[-80.583,45.643],[-80.538,45.658],[-80.548,45.665]]]]}},{"type":"Feature","properties":{"id":2249,"name":"Northwestern Health Unit"},"geometry":{"type":"MultiPolygon","coordinates":[[[[-91.0,54.595],[-91.0,55.591],[-92.684,54.436],[-93.638,53.745],[-95.153,52.841],[-95.153,49.646],[-95.112,49.653],[-95.101,49.646],[-95.111,49.635],[-95.082,49.636],[-95.112,49.632],[-95.096,49.628],[-95.121,49.617],[-95.104,49.613],[-95.016,49.641],[-94.985,49.635],[-94.999,49.627],[-94.982,49.619],[-94.957,49.629],[-94.948,49.623],[-94.97,49.607],[-94.947,49.596],[-94.977,49.581],[-94.981,49.615],[-95.005,49.581],[-94.966,49.575],[-94.978,49.56],[-94.953,49.578],[-94.932,49.558],[-94.878,49.569],[-94.836,49.61],[-94.772,49.627],[-94.795,49.636],[-94.856,49.608],[-94.877,49.618],[-94.791,49.639],[-94.846,49.648],[-94.829,49.656],[-94.842,49.661],[-94.934,49.634],[-94.925,49.65],[-94.857,49.664],[-94.943,49.659],[-94.911,49.668],[-94.93,49.677],[-94.903,49.672],[-94.912,49.663],[-94.851,49.667],[-94.83,49.677],[-94.881,49.689],[-94.827,49.695],[-94.809,49.713],[-94.781,49.706],[-94.805,49.695],[-94.64,49.726],[-94.657,49.709],[-94.58,49.714],[-94.583,49.702],[-94.559,49.697],[-94.664,49.701],[-94.678,49.691],[-94.635,49.691],[-94.68,49.654],[-94.589,49.656],[-94.512,49.693],[-94.566,49.673],[-94.555,49.701],[-94.514,49.7],[-94.556,49.711],[-94.572,49.731],[-94.559,49.737],[-94.58,49.733],[-94.547,49.758],[-94.56,49.765],[-94.444,49.768],[-94.492,49.757],[-94.474,49.752],[-94.49,49.743],[-94.473,49.725],[-94.444,49.727],[-94.446,49.703],[-94.419,49.728],[-94.396,49.727],[-94.4,49.717],[-94.39,49.728],[-94.379,49.707],[-94.379,49.725],[-94.361,49.73],[-94.376,49.688],[-94.364,49.705],[-94.329,49.676],[-94.309,49.68],[-94.319,49.661],[-94.295,49.672],[-94.314,49.648],[-94.304,49.644],[-94.328,49.639],[-94.302,49.621],[-94.415,49.628],[-94.276,49.606],[-94.303,49.594],[-94.218,49.592],[-94.34,49.585],[-94.352,49.595],[-94.314,49.596],[-94.356,49.601],[-94.364,49.586],[-94.383,49.596],[-94.375,49.576],[-94.384,49.605],[-94.423,49.609],[-94.413,49.605],[-94.432,49.593],[-94.391,49.584],[-94.384,49.567],[-94.319,49.555],[-94.329,49.541],[-94.309,49.551],[-94.334,49.514],[-94.295,49.509],[-94.287,49.517],[-94.308,49.533],[-94.285,49.508],[-94.215,49.525],[-94.249,49.509],[-94.211,49.503],[-94.247,49.496],[-94.227,49.491],[-94.273,49.49],[-94.227,49.481],[-94.206,49.501],[-94.175,49.497],[-94.206,49.481],[-94.091,49.454],[-94.14,49.471],[-94.121,49.481],[-94.114,49.464],[-94.032,49.459],[-94.014,49.441],[-93.98,49.441],[-94.013,49.433],[-93.962,49.422],[-93.944,49.43],[-93.962,49.435],[-93.828,49.425],[-93.884,49.406],[-93.932,49.422],[-93.951,49.41],[-93.995,49.418],[-93.976,49.399],[-93.952,49.402],[-93.973,49.387],[-94.002,49.404],[-94.125,49.411],[-94.079,49.375],[-94.062,49.375],[-94.063,49.393],[-94.006,49.376],[-94.016,49.37],[-93.995,49.338],[-93.98,49.34],[-94.009,49.323],[-94.016,49.336],[-94.024,49.319],[-94.026,49.335],[-94.009,49.329],[-93.996,49.348],[-94.026,49.336],[-94.041,49.369],[-94.067,49.37],[-94.051,49.363],[-94.058,49.333],[-94.046,49.339],[-94.034,49.324],[-94.035,49.264],[-94.05,49.242],[-94.036,49.239],[-94.055,49.245],[-94.122,49.197],[-94.14,49.212],[-94.112,49.221],[-94.164,49.227],[-94.081,49.233],[-94.103,49.257],[-94.069,49.24],[-94.08,49.248],[-94.059,49.257],[-94.094,49.288],[-94.125,49.276],[-94.113,49.293],[-94.149,49.289],[-94.169,49.317],[-94.193,49.317],[-94.194,49.294],[-94.197,49.309],[-94.228,49.319],[-94.215,49.324],[-94.237,49.336],[-94.224,49.344],[-94.232,49.358],[-94.222,49.348],[-94.216,49.359],[-94.249,49.362],[-94.205,49.378],[-94.269,49.39],[-94.205,49.383],[-94.216,49.423],[-94.259,49.398],[-94.288,49.401],[-94.276,49.396],[-94.285,49.381],[-94.317,49.368],[-94.338,49.364],[-94.311,49.375],[-94.32,49.384],[-94.364,49.37],[-94.267,49.414],[-94.307,49.412],[-94.281,49.42],[-94.296,49.424],[-94.269,49.45],[-94.348,49.473],[-94.311,49.48],[-94.298,49.476],[-94.314,49.465],[-94.257,49.458],[-94.221,49.475],[-94.354,49.489],[-94.382,49.467],[-94.35,49.452],[-94.369,49.466],[-94.362,49.446],[-94.388,49.452],[-94.365,49.437],[-94.397,49.448],[-94.38,49.455],[-94.388,49.476],[-94.369,49.482],[-94.55,49.468],[-94.591,49.419],[-94.567,49.464],[-94.609,49.455],[-94.608,49.441],[-94.621,49.454],[-94.611,49.46],[-94.64,49.461],[-94.635,49.472],[-94.655,49.463],[-94.702,49.42],[-94.698,49.403],[-94.677,49.399],[-94.701,49.361],[-94.682,49.364],[-94.677,49.393],[-94.65,49.387],[-94.677,49.382],[-94.667,49.362],[-94.648,49.37],[-94.607,49.35],[-94.604,49.367],[-94.583,49.371],[-94.593,49.381],[-94.586,49.363],[-94.559,49.366],[-94.576,49.359],[-94.554,49.347],[-94.586,49.348],[-94.562,49.339],[-94.573,49.325],[-94.599,49.341],[-94.648,49.318],[-94.629,49.306],[-94.606,49.308],[-94.614,49.318],[-94.578,49.312],[-94.602,49.303],[-94.56,49.297],[-94.563,49.282],[-94.506,49.263],[-94.53,49.246],[-94.491,49.238],[-94.465,49.25],[-94.485,49.236],[-94.45,49.231],[-94.407,49.26],[-94.424,49.263],[-94.398,49.268],[-94.41,49.278],[-94.385,49.262],[-94.363,49.284],[-94.308,49.285],[-94.317,49.263],[-94.278,49.251],[-94.306,49.237],[-94.297,49.222],[-94.281,49.249],[-94.251,49.25],[-94.271,49.233],[-94.255,49.215],[-94.272,49.22],[-94.269,49.209],[-94.228,49.192],[-94.232,49.218],[-94.214,49.223],[-94.221,49.205],[-94.195,49.199],[-94.213,49.176],[-93.965,49.188],[-93.999,49.188],[-94.006,49.177],[-93.991,49.168],[-94.008,49.174],[-94.009,49.163],[-94.031,49.176],[-94.015,49.185],[-94.075,49.173],[-93.988,49.153],[-93.979,49.178],[-93.965,49.163],[-93.956,49.171],[-93.982,49.142],[-94.042,49.139],[-94.001,49.147],[-94.047,49.154],[-94.055,49.133],[-94.072,49.152],[-94.071,49.139],[-94.105,49.133],[-94.051,49.112],[-94.067,49.107],[-94.054,49.098],[-94.013,49.105],[-94.053,49.113],[-94.037,49.119],[-94.051,49.129],[-93.961,49.099],[-93.959,49.162],[-93.939,49.154],[-93.941,49.175],[-93.928,49.153],[-93.95,49.14],[-93.927,49.115],[-93.948,49.083],[-93.959,49.091],[-94.003,49.052],[-93.996,49.031],[-94.0,49.048],[-94.022,49.048],[-93.999,49.062],[-94.014,49.068],[-94.0,49.081],[-94.029,49.097],[-94.048,49.093],[-94.029,49.077],[-94.081,49.102],[-94.085,49.081],[-94.069,49.065],[-94.09,49.077],[-94.082,49.102],[-94.118,49.119],[-94.192,49.085],[-94.208,49.102],[-94.243,49.096],[-94.227,49.112],[-94.237,49.107],[-94.246,49.138],[-94.251,49.126],[-94.282,49.134],[-94.296,49.121],[-94.284,49.135],[-94.306,49.139],[-94.315,49.116],[-94.34,49.115],[-94.339,49.088],[-94.312,49.097],[-94.321,49.075],[-94.294,49.081],[-94.304,49.07],[-94.228,49.047],[-94.34,49.074],[-94.344,49.094],[-94.368,49.082],[-94.376,49.092],[-94.342,49.076],[-94.362,49.04],[-94.401,49.03],[-94.426,48.995],[-94.457,49.002],[-94.463,48.986],[-94.368,48.947],[-94.393,48.943],[-94.404,48.963],[-94.446,48.972],[-94.434,48.96],[-94.448,48.946],[-94.437,48.961],[-94.458,48.975],[-94.503,48.955],[-94.561,48.956],[-94.545,48.969],[-94.592,48.949],[-94.633,48.906],[-94.655,48.85],[-94.655,48.861],[-94.676,48.859],[-94.701,48.825],[-94.687,48.777],[-94.643,48.745],[-94.535,48.703],[-94.453,48.694],[-94.416,48.712],[-94.29,48.709],[-94.252,48.688],[-94.249,48.657],[-94.218,48.65],[-93.843,48.631],[-93.825,48.624],[-93.804,48.576],[-93.817,48.532],[-93.792,48.517],[-93.543,48.531],[-93.467,48.548],[-93.466,48.592],[-93.356,48.613],[-93.355,48.636],[-93.316,48.648],[-93.321,48.659],[-93.368,48.648],[-93.333,48.667],[-93.341,48.677],[-93.39,48.657],[-93.412,48.674],[-93.407,48.69],[-93.453,48.695],[-93.407,48.693],[-93.435,48.705],[-93.425,48.71],[-93.397,48.694],[-93.397,48.718],[-93.421,48.74],[-93.375,48.716],[-93.395,48.721],[-93.386,48.698],[-93.36,48.711],[-93.346,48.738],[-93.387,48.762],[-93.344,48.741],[-93.359,48.759],[-93.336,48.767],[-93.356,48.78],[-93.335,48.783],[-93.397,48.787],[-93.389,48.82],[-93.427,48.805],[-93.418,48.787],[-93.447,48.791],[-93.439,48.81],[-93.46,48.802],[-93.442,48.815],[-93.463,48.809],[-93.477,48.823],[-93.491,48.812],[-93.473,48.797],[-93.555,48.793],[-93.518,48.798],[-93.487,48.831],[-93.525,48.843],[-93.52,48.822],[-93.546,48.844],[-93.566,48.842],[-93.556,48.833],[-93.576,48.815],[-93.564,48.812],[-93.587,48.804],[-93.635,48.841],[-93.546,48.852],[-93.53,48.877],[-93.529,48.858],[-93.497,48.853],[-93.49,48.836],[-93.437,48.82],[-93.41,48.834],[-93.402,48.818],[-93.397,48.833],[-93.414,48.839],[-93.397,48.844],[-93.402,48.855],[-93.426,48.854],[-93.438,48.841],[-93.426,48.833],[-93.439,48.832],[-93.437,48.848],[-93.468,48.869],[-93.358,48.884],[-93.483,48.89],[-93.489,48.906],[-93.453,48.905],[-93.46,48.916],[-93.389,48.933],[-93.369,48.923],[-93.436,48.906],[-93.35,48.916],[-93.35,48.904],[-93.323,48.934],[-93.34,48.943],[-93.316,48.954],[-93.376,48.972],[-93.335,48.973],[-93.31,48.962],[-93.307,48.941],[-93.295,48.954],[-93.31,48.924],[-93.3,48.912],[-93.313,48.909],[-93.295,48.912],[-93.3,48.883],[-93.268,48.866],[-93.291,48.877],[-93.307,48.86],[-93.277,48.85],[-93.309,48.838],[-93.278,48.838],[-93.277,48.818],[-93.245,48.802],[-93.182,48.81],[-93.195,48.791],[-93.1,48.786],[-93.188,48.78],[-93.175,48.772],[-93.233,48.75],[-93.139,48.746],[-93.203,48.723],[-93.225,48.699],[-93.277,48.702],[-93.284,48.693],[-93.234,48.69],[-93.267,48.69],[-93.283,48.665],[-93.202,48.669],[-93.248,48.68],[-93.195,48.682],[-93.191,48.702],[-93.203,48.701],[-93.19,48.715],[-93.168,48.722],[-93.181,48.701],[-93.16,48.705],[-93.166,48.721],[-93.111,48.752],[-93.095,48.73],[-93.137,48.732],[-93.155,48.713],[-93.098,48.719],[-93.175,48.702],[-93.189,48.684],[-93.124,48.685],[-93.04,48.712],[-93.081,48.691],[-93.184,48.682],[-93.13,48.672],[-93.12,48.656],[-93.119,48.667],[-93.102,48.67],[-93.113,48.657],[-93.052,48.67],[-93.05,48.682],[-93.045,48.67],[-93.034,48.691],[-93.031,48.681],[-92.972,48.698],[-92.974,48.687],[-92.946,48.709],[-92.94,48.696],[-92.906,48.701],[-93.027,48.653],[-93.004,48.66],[-93.004,48.65],[-92.962,48.671],[-92.944,48.66],[-92.868,48.665],[-92.775,48.687],[-92.783,48.66],[-92.787,48.676],[-92.901,48.642],[-92.836,48.627],[-92.912,48.616],[-92.884,48.621],[-92.895,48.606],[-92.863,48.602],[-92.784,48.611],[-92.797,48.607],[-92.782,48.6],[-92.731,48.61],[-92.756,48.596],[-92.692,48.587],[-92.714,48.588],[-92.736,48.566],[-92.678,48.577],[-92.653,48.618],[-92.674,48.574],[-92.653,48.574],[-92.653,48.559],[-92.614,48.57],[-92.587,48.558],[-92.597,48.547],[-92.548,48.557],[-92.558,48.539],[-92.597,48.535],[-92.588,48.531],[-92.605,48.508],[-92.594,48.495],[-92.55,48.513],[-92.559,48.502],[-92.549,48.493],[-92.606,48.482],[-92.63,48.496],[-92.641,48.483],[-92.633,48.497],[-92.647,48.499],[-92.702,48.482],[-92.659,48.481],[-92.696,48.475],[-92.671,48.462],[-92.656,48.474],[-92.655,48.452],[-92.628,48.471],[-92.603,48.458],[-92.557,48.473],[-92.447,48.462],[-92.465,48.465],[-92.453,48.455],[-92.468,48.451],[-92.446,48.443],[-92.494,48.435],[-92.4,48.41],[-92.448,48.405],[-92.472,48.364],[-92.419,48.373],[-92.436,48.368],[-92.434,48.355],[-92.449,48.355],[-92.437,48.367],[-92.469,48.352],[-92.425,48.351],[-92.451,48.328],[-92.432,48.306],[-92.417,48.316],[-92.403,48.281],[-92.398,48.291],[-92.369,48.221],[-92.274,48.25],[-92.307,48.278],[-92.313,48.313],[-92.329,48.308],[-92.332,48.336],[-92.366,48.336],[-92.361,48.35],[-92.3,48.325],[-92.282,48.352],[-92.292,48.358],[-92.236,48.365],[-92.214,48.354],[-92.073,48.386],[-92.058,48.38],[-92.076,48.374],[-92.052,48.364],[-92.016,48.372],[-92.014,48.394],[-92.009,48.372],[-91.94,48.38],[-91.956,48.364],[-92.03,48.355],[-91.905,48.364],[-91.953,48.348],[-92.02,48.35],[-92.018,48.329],[-91.983,48.327],[-91.995,48.33],[-91.98,48.343],[-91.973,48.319],[-91.992,48.324],[-91.952,48.317],[-91.978,48.314],[-91.949,48.305],[-91.969,48.295],[-92.01,48.296],[-91.993,48.263],[-91.976,48.269],[-91.977,48.246],[-91.966,48.257],[-91.928,48.237],[-91.868,48.246],[-91.852,48.212],[-91.802,48.234],[-91.805,48.218],[-91.775,48.201],[-91.763,48.205],[-91.783,48.207],[-91.762,48.206],[-91.768,48.215],[-91.798,48.22],[-91.756,48.225],[-91.744,48.2],[-91.705,48.212],[-91.723,48.17],[-91.701,48.181],[-91.707,48.151],[-91.688,48.156],[-91.711,48.115],[-91.682,48.125],[-91.677,48.108],[-91.631,48.111],[-91.639,48.098],[-91.566,48.138],[-91.603,48.111],[-91.575,48.109],[-91.541,48.132],[-91.557,48.133],[-91.548,48.139],[-91.497,48.143],[-91.486,48.163],[-91.518,48.147],[-91.508,48.162],[-91.476,48.164],[-91.46,48.154],[-91.474,48.149],[-91.467,48.138],[-91.564,48.091],[-91.554,48.084],[-91.571,48.065],[-91.548,48.067],[-91.548,48.087],[-91.525,48.088],[-91.526,48.077],[-91.501,48.09],[-91.509,48.065],[-91.47,48.091],[-91.445,48.063],[-91.425,48.066],[-91.43,48.049],[-91.336,48.075],[-91.33,48.087],[-91.348,48.086],[-91.292,48.11],[-91.272,48.101],[-91.302,48.099],[-91.334,48.07],[-91.254,48.084],[-91.198,48.128],[-91.181,48.134],[-91.183,48.123],[-91.138,48.151],[-91.15,48.16],[-91.095,48.173],[-91.083,48.203],[-91.057,48.203],[-91.077,48.2],[-91.08,48.18],[-91.005,48.201],[-91.042,48.2],[-91.034,48.21],[-91.05,48.215],[-91.029,48.231],[-91.057,48.231],[-91.01,48.23],[-90.992,48.224],[-90.996,48.212],[-90.965,48.234],[-90.966,49.996],[-90.171,49.997],[-90.167,51.134],[-90.081,51.152],[-90.051,51.13],[-89.979,51.151],[-89.969,51.174],[-89.918,51.166],[-89.794,51.217],[-89.681,51.226],[-89.615,51.257],[-89.58,51.25],[-89.58,51.274],[-89.512,51.304],[-89.506,52.495],[-91.0,52.497],[-91.0,53.834],[-90.875,53.832],[-90.865,53.856],[-90.833,53.866],[-90.854,53.865],[-90.837,53.882],[-90.852,53.897],[-90.834,53.908],[-90.837,53.946],[-91.0,53.944],[-91.0,54.595]],[[-94.538,50.003],[-94.537,50.006],[-94.524,49.987],[-94.486,50.0],[-94.53,49.972],[-94.53,49.992],[-94.554,50.002],[-94.538,50.003]],[[-94.55,49.973],[-94.559,49.966],[-94.565,49.946],[-94.549,49.952],[-94.555,49.938],[-94.528,49.931],[-94.549,49.914],[-94.536,49.918],[-94.551,49.858],[-94.561,49.87],[-94.578,49.853],[-94.504,49.856],[-94.55,49.846],[-94.553,49.825],[-94.539,49.818],[-94.524,49.835],[-94.53,49.819],[-94.498,49.81],[-94.524,49.797],[-94.503,49.795],[-94.509,49.784],[-94.493,49.775],[-94.616,49.752],[-94.598,49.758],[-94.633,49.769],[-94.604,49.782],[-94.59,49.779],[-94.612,49.768],[-94.583,49.771],[-94.605,49.766],[-94.597,49.758],[-94.517,49.784],[-94.57,49.782],[-94.572,49.81],[-94.587,49.795],[-94.572,49.827],[-94.61,49.841],[-94.664,49.818],[-94.668,49.803],[-94.693,49.805],[-94.693,49.82],[-94.672,49.81],[-94.672,49.825],[-94.595,49.849],[-94.586,49.877],[-94.601,49.887],[-94.621,49.866],[-94.639,49.87],[-94.637,49.907],[-94.653,49.907],[-94.643,49.917],[-94.683,49.913],[-94.688,49.889],[-94.702,49.905],[-94.689,49.918],[-94.712,49.929],[-94.695,49.936],[-94.71,49.942],[-94.681,49.939],[-94.696,49.951],[-94.682,49.949],[-94.659,49.991],[-94.623,49.975],[-94.608,49.986],[-94.602,49.964],[-94.576,49.964],[-94.591,49.955],[-94.572,49.96],[-94.59,49.95],[-94.566,49.932],[-94.561,49.98],[-94.535,49.978],[-94.55,49.973]]],[[[-92.606,48.528],[-92.625,48.519],[-92.62,48.5],[-92.595,48.521],[-92.606,48.528]]],[[[-93.135,48.656],[-93.145,48.655],[-93.153,48.648],[-93.135,48.651],[-93.142,48.635],[-93.125,48.629],[-93.059,48.643],[-93.127,48.641],[-93.135,48.656]]],[[[-93.358,48.707],[-93.36,48.71],[-93.37,48.679],[-93.346,48.678],[-93.352,48.69],[-93.333,48.678],[-93.326,48.699],[-93.358,48.707]]],[[[-93.331,48.735],[-93.342,48.734],[-93.357,48.708],[-93.327,48.706],[-93.331,48.735]]],[[[-93.227,48.779],[-93.251,48.776],[-93.291,48.763],[-93.285,48.754],[-93.227,48.779]]],[[[-93.261,48.786],[-93.284,48.777],[-93.309,48.785],[-93.3,48.778],[-93.318,48.763],[-93.247,48.783],[-93.261,48.786]]],[[[-93.284,48.811],[-93.295,48.81],[-93.307,48.792],[-93.274,48.791],[-93.284,48.811]]],[[[-94.579,49.112],[-94.581,49.114],[-94.615,49.105],[-94.647,49.049],[-94.629,49.026],[-94.626,49.048],[-94.59,49.054],[-94.561,49.012],[-94.542,49.022],[-94.546,49.035],[-94.523,49.037],[-94.524,49.062],[-94.502,49.067],[-94.521,49.1],[-94.562,49.097],[-94.553,49.085],[-94.568,49.079],[-94.562,49.1],[-94.579,49.112]]],[[[-94.152,49.135],[-94.158,49.132],[-94.184,49.118],[-94.161,49.11],[-94.132,49.128],[-94.152,49.135]]],[[[-94.496,49.152],[-94.508,49.147],[-94.542,49.133],[-94.561,49.103],[-94.531,49.106],[-94.482,49.144],[-94.496,49.152]]],[[[-94.134,49.178],[-94.138,49.18],[-94.153,49.178],[-94.124,49.158],[-94.107,49.177],[-94.134,49.178]]],[[[-94.263,49.195],[-94.272,49.193],[-94.303,49.176],[-94.207,49.185],[-94.263,49.195]]],[[[-94.495,49.202],[-94.518,49.196],[-94.504,49.193],[-94.518,49.19],[-94.519,49.162],[-94.46,49.179],[-94.44,49.167],[-94.448,49.188],[-94.478,49.196],[-94.461,49.196],[-94.495,49.202]]],[[[-94.646,49.209],[-94.681,49.191],[-94.741,49.168],[-94.77,49.181],[-94.766,49.198],[-94.795,49.195],[-94.774,49.156],[-94.74,49.148],[-94.771,49.124],[-94.73,49.124],[-94.724,49.112],[-94.744,49.101],[-94.722,49.08],[-94.683,49.088],[-94.693,49.098],[-94.678,49.12],[-94.638,49.1],[-94.637,49.133],[-94.612,49.119],[-94.588,49.136],[-94.58,49.128],[-94.569,49.156],[-94.549,49.154],[-94.525,49.179],[-94.525,49.193],[-94.544,49.19],[-94.539,49.205],[-94.572,49.204],[-94.59,49.182],[-94.598,49.193],[-94.654,49.162],[-94.667,49.172],[-94.632,49.181],[-94.646,49.209]]],[[[-94.387,49.217],[-94.393,49.214],[-94.406,49.201],[-94.332,49.205],[-94.387,49.217]]],[[[-94.495,49.228],[-94.523,49.223],[-94.495,49.211],[-94.516,49.201],[-94.431,49.202],[-94.495,49.228]]],[[[-94.395,49.237],[-94.4,49.235],[-94.414,49.227],[-94.351,49.22],[-94.395,49.237]]],[[[-94.55,49.269],[-94.563,49.265],[-94.594,49.257],[-94.542,49.249],[-94.55,49.269]]],[[[-94.175,49.365],[-94.187,49.362],[-94.178,49.336],[-94.192,49.352],[-94.205,49.328],[-94.166,49.32],[-94.165,49.356],[-94.183,49.345],[-94.175,49.365]]],[[[-94.683,49.356],[-94.689,49.353],[-94.683,49.331],[-94.655,49.321],[-94.658,49.35],[-94.683,49.356]]],[[[-94.851,49.368],[-94.864,49.367],[-94.886,49.357],[-94.872,49.348],[-94.883,49.34],[-94.82,49.365],[-94.851,49.368]]],[[[-94.876,49.378],[-94.881,49.376],[-94.906,49.363],[-94.879,49.358],[-94.864,49.374],[-94.876,49.378]]],[[[-94.726,49.426],[-94.736,49.423],[-94.728,49.415],[-94.799,49.42],[-94.793,49.409],[-94.758,49.416],[-94.78,49.41],[-94.761,49.395],[-94.784,49.378],[-94.778,49.365],[-94.792,49.377],[-94.798,49.351],[-94.839,49.343],[-94.769,49.327],[-94.774,49.35],[-94.737,49.362],[-94.75,49.346],[-94.718,49.343],[-94.715,49.38],[-94.697,49.393],[-94.726,49.426]]],[[[-94.189,49.468],[-94.192,49.468],[-94.2,49.457],[-94.176,49.444],[-94.189,49.442],[-94.141,49.434],[-94.162,49.426],[-94.147,49.417],[-94.002,49.426],[-94.021,49.44],[-94.058,49.427],[-94.074,49.446],[-94.189,49.468]]],[[[-94.666,49.5],[-94.698,49.497],[-94.72,49.481],[-94.695,49.48],[-94.745,49.45],[-94.734,49.435],[-94.7,49.452],[-94.702,49.441],[-94.678,49.437],[-94.647,49.474],[-94.705,49.472],[-94.655,49.492],[-94.666,49.5]]],[[[-94.43,49.513],[-94.465,49.5],[-94.538,49.485],[-94.509,49.484],[-94.515,49.473],[-94.46,49.498],[-94.444,49.489],[-94.442,49.505],[-94.413,49.508],[-94.43,49.513]]],[[[-94.718,49.516],[-94.728,49.512],[-94.771,49.49],[-94.681,49.504],[-94.74,49.497],[-94.718,49.516]]],[[[-94.678,49.536],[-94.68,49.536],[-94.715,49.524],[-94.715,49.509],[-94.608,49.531],[-94.678,49.536]]],[[[-95.146,49.591],[-95.154,49.589],[-95.152,49.47],[-95.121,49.504],[-95.143,49.507],[-95.092,49.544],[-95.117,49.554],[-95.108,49.587],[-95.14,49.572],[-95.122,49.589],[-95.146,49.591]]],[[[-94.569,49.62],[-94.576,49.618],[-94.616,49.603],[-94.571,49.583],[-94.598,49.602],[-94.569,49.62]]],[[[-94.78,49.614],[-94.802,49.613],[-94.828,49.599],[-94.765,49.611],[-94.776,49.598],[-94.753,49.598],[-94.78,49.614]]],[[[-94.522,49.62],[-94.525,49.622],[-94.568,49.612],[-94.511,49.609],[-94.522,49.62]]],[[[-95.147,49.617],[-95.153,49.617],[-95.138,49.595],[-95.103,49.6],[-95.147,49.617]]],[[[-94.759,49.641],[-94.758,49.639],[-94.766,49.629],[-94.719,49.627],[-94.774,49.621],[-94.731,49.615],[-94.756,49.605],[-94.75,49.584],[-94.774,49.584],[-94.729,49.579],[-94.773,49.582],[-94.779,49.598],[-94.817,49.593],[-94.907,49.545],[-94.86,49.552],[-94.836,49.542],[-94.84,49.53],[-94.937,49.528],[-94.951,49.51],[-94.933,49.505],[-94.974,49.514],[-94.957,49.501],[-94.977,49.491],[-94.954,49.489],[-95.039,49.473],[-95.078,49.445],[-95.071,49.461],[-95.115,49.441],[-95.153,49.452],[-95.155,49.391],[-95.12,49.37],[-95.015,49.363],[-94.972,49.394],[-94.911,49.392],[-94.941,49.415],[-94.907,49.431],[-94.955,49.439],[-94.909,49.466],[-94.897,49.464],[-94.906,49.453],[-94.881,49.457],[-94.878,49.47],[-94.879,49.457],[-94.849,49.45],[-94.841,49.462],[-94.859,49.458],[-94.848,49.477],[-94.86,49.481],[-94.828,49.489],[-94.855,49.484],[-94.84,49.502],[-94.853,49.498],[-94.817,49.506],[-94.84,49.516],[-94.867,49.498],[-94.858,49.513],[-94.889,49.506],[-94.89,49.518],[-94.797,49.522],[-94.818,49.497],[-94.787,49.522],[-94.674,49.547],[-94.691,49.554],[-94.643,49.566],[-94.698,49.576],[-94.615,49.599],[-94.651,49.612],[-94.602,49.632],[-94.615,49.634],[-94.604,49.646],[-94.735,49.629],[-94.759,49.641]]],[[[-94.381,49.679],[-94.385,49.674],[-94.433,49.646],[-94.388,49.633],[-94.369,49.646],[-94.396,49.643],[-94.383,49.651],[-94.322,49.64],[-94.383,49.659],[-94.381,49.679]]],[[[-94.706,49.702],[-94.721,49.701],[-94.693,49.694],[-94.722,49.679],[-94.691,49.674],[-94.722,49.652],[-94.656,49.68],[-94.702,49.684],[-94.679,49.701],[-94.706,49.702]]],[[[-94.742,49.703],[-94.767,49.7],[-94.842,49.681],[-94.781,49.671],[-94.758,49.682],[-94.777,49.689],[-94.742,49.703]]],[[[-94.549,49.803],[-94.556,49.799],[-94.559,49.786],[-94.517,49.786],[-94.549,49.803]]],[[[-94.656,49.984],[-94.656,49.974],[-94.638,49.969],[-94.644,49.944],[-94.66,49.929],[-94.687,49.934],[-94.689,49.921],[-94.648,49.915],[-94.635,49.93],[-94.646,49.941],[-94.633,49.939],[-94.634,49.901],[-94.618,49.885],[-94.594,49.903],[-94.605,49.893],[-94.592,49.88],[-94.575,49.891],[-94.578,49.912],[-94.613,49.908],[-94.58,49.927],[-94.568,49.902],[-94.585,49.876],[-94.557,49.874],[-94.553,49.925],[-94.596,49.938],[-94.616,49.925],[-94.593,49.94],[-94.656,49.984]]]]}},{"type":"Feature","properties":{"id":2251,"name":"Ottawa Public Health"},"geometry":{"type":"MultiPolygon","coordinates":[[[[-75.325,45.509],[-75.343,45.537],[-75.678,45.461],[-75.705,45.425],[-75.756,45.412],[-75.818,45.373],[-75.895,45.402],[-75.987,45.48],[-76.14,45.518],[-76.233,45.508],[-76.24,45.471],[-76.296,45.465],[-76.297,45.447],[-76.354,45.411],[-75.973,45.108],[-75.941,45.08],[-75.953,45.072],[-75.82,44.962],[-75.643,45.068],[-75.618,45.104],[-75.629,45.126],[-75.595,45.084],[-75.353,45.182],[-75.426,45.312],[-75.246,45.365],[-75.325,45.509]]]]}},{"type":"Feature","properties":{"id":2253,"name":"Peel Public Health"},"geometry":{"type":"MultiPolygon","coordinates":[[[[-79.706,43.867],[-79.775,43.99],[-80.083,43.922],[-80.144,43.865],[-79.788,43.601],[-79.809,43.586],[-79.747,43.54],[-79.697,43.508],[-79.682,43.523],[-79.61,43.484],[-79.599,43.536],[-79.541,43.569],[-79.544,43.585],[-79.567,43.61],[-79.564,43.628],[-79.609,43.646],[-79.589,43.665],[-79.706,43.867]]]]}},{"type":"Feature","properties":{"id":2257,"name":"Renfrew County and District Health Unit"},"geometry":{"type":"MultiPolygon","coordinates":[[[[-78.073,46.25],[-78.117,46.264],[-78.26,46.274],[-78.31,46.253],[-78.403,46.293],[-78.397,46.274],[-78.412,46.273],[-78.328,46.121],[-78.513,46.072],[-78.589,46.212],[-78.761,46.165],[-78.798,46.234],[-78.978,46.188],[-78.987,46.205],[-79.158,46.16],[-79.094,46.04],[-79.258,45.994],[-79.13,45.752],[-79.055,45.765],[-78.86,45.415],[-78.315,45.561],[-78.178,45.31],[-77.691,45.438],[-77.544,45.144],[-77.216,45.237],[-77.137,45.099],[-76.971,45.145],[-76.992,45.184],[-76.938,45.211],[-76.895,45.194],[-76.815,45.221],[-76.77,45.142],[-76.297,45.447],[-76.296,45.465],[-76.366,45.458],[-76.501,45.519],[-76.604,45.532],[-76.659,45.561],[-76.675,45.584],[-76.669,45.624],[-76.712,45.665],[-76.687,45.685],[-76.693,45.709],[-76.77,45.734],[-76.781,45.785],[-76.765,45.851],[-76.78,45.872],[-76.895,45.898],[-76.928,45.892],[-76.901,45.853],[-76.927,45.847],[-76.913,45.804],[-76.988,45.787],[-77.082,45.836],[-77.19,45.864],[-77.278,45.949],[-77.279,46.016],[-77.566,46.159],[-77.677,46.199],[-77.698,46.183],[-77.988,46.247],[-78.073,46.25]]]]}},{"type":"Feature","properties":{"id":2258,"name":"Eastern Ontario Health Unit"},"geometry":{"type":"MultiPolygon","coordinates":[[[[-74.625,45.634],[-74.638,45.639],[-74.724,45.628],[-74.937,45.645],[-75.022,45.597],[-75.128,45.577],[-75.236,45.587],[-75.343,45.537],[-75.246,45.365],[-75.426,45.312],[-75.353,45.182],[-75.595,45.084],[-75.361,44.801],[-75.279,44.862],[-75.201,44.883],[-75.122,44.933],[-75.077,44.936],[-75.057,44.958],[-75.061,44.944],[-75.007,44.964],[-75.003,44.975],[-75.021,44.965],[-75.006,44.984],[-74.939,45.003],[-74.946,45.016],[-74.969,45.007],[-74.947,45.025],[-74.929,45.01],[-74.832,45.032],[-74.791,45.027],[-74.795,45.006],[-74.736,45.009],[-74.546,45.063],[-74.516,45.089],[-74.505,45.123],[-74.45,45.16],[-74.389,45.168],[-74.389,45.183],[-74.343,45.205],[-74.472,45.303],[-74.382,45.564],[-74.475,45.594],[-74.535,45.595],[-74.625,45.634]]],[[[-74.664,45.015],[-74.682,45.018],[-74.761,45.0],[-74.736,44.992],[-74.664,45.015]]]]}},{"type":"Feature","properties":{"id":2260,"name":"Simcoe Muskoka District Health Unit"},"geometry":{"type":"MultiPolygon","coordinates":[[[[-79.934,44.816],[-79.927,44.816],[-79.904,44.842],[-79.952,44.867],[-80.029,44.854],[-80.049,44.802],[-80.074,44.801],[-80.079,44.823],[-80.124,44.809],[-80.129,44.751],[-80.032,44.723],[-79.979,44.668],[-80.009,44.599],[-79.992,44.585],[-79.995,44.56],[-80.044,44.502],[-80.117,44.47],[-80.293,44.532],[-80.229,44.253],[-80.034,44.295],[-79.951,43.951],[-79.637,44.021],[-79.557,44.076],[-79.545,44.137],[-79.514,44.176],[-79.509,44.422],[-79.164,44.471],[-79.145,44.512],[-79.082,44.516],[-79.209,44.8],[-79.063,44.84],[-79.119,44.95],[-79.094,44.943],[-78.934,44.986],[-79.001,45.105],[-78.843,45.145],[-78.871,45.178],[-78.868,45.213],[-78.882,45.215],[-78.973,45.38],[-78.86,45.415],[-78.925,45.534],[-79.673,45.334],[-79.606,45.215],[-79.969,45.116],[-79.925,45.105],[-79.971,45.115],[-80.052,45.094],[-79.921,45.082],[-80.098,45.086],[-80.038,45.07],[-80.075,45.074],[-80.069,45.065],[-79.937,45.062],[-79.971,45.058],[-79.972,45.038],[-79.992,45.036],[-79.983,45.026],[-80.011,45.044],[-80.009,45.028],[-79.924,45.001],[-79.887,45.015],[-79.924,44.999],[-79.909,44.989],[-79.927,44.998],[-79.935,44.991],[-79.919,44.983],[-79.952,44.978],[-79.928,44.979],[-79.926,44.946],[-79.922,44.964],[-79.91,44.958],[-79.927,44.934],[-79.881,44.949],[-79.897,44.971],[-79.818,44.932],[-79.834,44.924],[-79.816,44.919],[-79.846,44.91],[-79.838,44.895],[-79.797,44.888],[-79.778,44.917],[-79.785,44.891],[-79.811,44.88],[-79.764,44.886],[-79.782,44.88],[-79.768,44.872],[-79.826,44.87],[-79.817,44.852],[-79.77,44.837],[-79.796,44.813],[-79.735,44.788],[-79.737,44.814],[-79.722,44.815],[-79.734,44.819],[-79.697,44.832],[-79.72,44.804],[-79.709,44.783],[-79.718,44.766],[-79.676,44.768],[-79.667,44.75],[-79.71,44.76],[-79.743,44.732],[-79.763,44.77],[-79.786,44.757],[-79.778,44.721],[-79.785,44.743],[-79.806,44.73],[-79.794,44.753],[-79.804,44.744],[-79.809,44.772],[-79.847,44.76],[-79.847,44.732],[-79.871,44.758],[-79.899,44.758],[-79.866,44.783],[-79.881,44.811],[-79.932,44.809],[-79.939,44.771],[-79.953,44.768],[-79.95,44.807],[-79.934,44.816]]],[[[-80.238,44.884],[-80.244,44.88],[-80.233,44.859],[-80.245,44.833],[-80.198,44.793],[-80.155,44.787],[-80.191,44.805],[-80.152,44.828],[-80.157,44.855],[-80.181,44.874],[-80.213,44.856],[-80.238,44.884]]],[[[-79.852,44.901],[-79.856,44.901],[-79.886,44.886],[-79.867,44.883],[-79.879,44.874],[-79.872,44.828],[-79.861,44.871],[-79.847,44.87],[-79.858,44.888],[-79.835,44.888],[-79.852,44.901]]],[[[-80.122,44.885],[-80.126,44.885],[-80.138,44.876],[-80.122,44.868],[-80.129,44.841],[-80.112,44.839],[-80.097,44.861],[-80.123,44.872],[-80.122,44.885]]],[[[-79.986,44.931],[-79.992,44.929],[-80.015,44.906],[-80.009,44.881],[-79.986,44.931]]],[[[-80.164,44.916],[-80.189,44.912],[-80.201,44.904],[-80.162,44.895],[-80.164,44.916]]]]}},{"type":"Feature","properties":{"id":2261,"name":"Public Health Sudbury & Districts"},"geometry":{"type":"MultiPolygon","coordinates":[[[[-81.856,48.131],[-81.857,48.45],[-84.015,48.45],[-84.016,47.934],[-83.974,47.934],[-83.975,47.236],[-82.577,47.236],[-82.579,46.977],[-81.95,46.976],[-81.945,46.625],[-82.069,46.625],[-82.068,46.367],[-82.193,46.367],[-82.192,46.278],[-82.313,46.278],[-82.313,46.186],[-82.057,46.177],[-82.052,46.099],[-81.886,46.093],[-81.722,46.109],[-81.733,46.105],[-81.72,46.096],[-81.748,46.095],[-81.718,46.095],[-81.741,46.083],[-81.73,46.08],[-81.792,46.064],[-81.771,46.031],[-81.774,46.002],[-81.747,46.015],[-81.756,46.03],[-81.731,46.049],[-81.771,46.066],[-81.642,46.066],[-81.678,46.075],[-81.653,46.08],[-81.672,46.09],[-81.656,46.099],[-81.674,46.11],[-81.662,46.115],[-81.552,46.094],[-81.539,46.086],[-81.568,46.059],[-81.525,46.063],[-81.717,46.008],[-81.473,46.048],[-81.551,46.021],[-81.671,46.01],[-81.557,45.999],[-81.687,45.942],[-81.617,45.957],[-81.515,46.01],[-81.48,46.008],[-81.521,45.987],[-81.521,45.972],[-81.488,45.968],[-81.46,45.992],[-81.234,45.993],[-81.219,46.007],[-81.149,45.998],[-81.145,45.985],[-81.187,45.945],[-81.165,45.939],[-81.199,45.932],[-81.142,45.92],[-81.129,45.948],[-81.015,45.948],[-80.974,45.967],[-80.975,45.937],[-80.951,45.934],[-80.977,45.922],[-80.924,45.937],[-80.922,45.927],[-80.907,45.946],[-80.917,45.927],[-80.895,45.949],[-80.851,45.917],[-80.829,45.926],[-80.827,45.957],[-80.825,45.928],[-80.807,45.958],[-80.798,45.936],[-80.791,45.945],[-80.808,45.896],[-80.8,45.911],[-80.798,45.895],[-80.759,45.97],[-80.751,45.951],[-80.775,45.928],[-80.732,45.951],[-80.755,45.924],[-80.731,45.913],[-80.738,45.874],[-80.694,45.872],[-80.695,45.885],[-80.674,45.889],[-80.556,45.892],[-80.583,46.018],[-80.475,46.037],[-80.297,46.036],[-80.175,46.066],[-80.187,46.08],[-80.146,46.075],[-80.14,46.092],[-80.176,46.105],[-80.306,46.105],[-80.292,46.625],[-80.359,46.625],[-80.358,46.643],[-80.355,46.711],[-80.292,46.711],[-80.272,47.32],[-81.073,47.322],[-81.074,48.103],[-81.857,48.104],[-81.856,48.131]]],[[[-81.702,45.531],[-81.7,45.537],[-81.818,45.501],[-81.811,45.487],[-81.836,45.472],[-81.818,45.476],[-81.826,45.448],[-81.795,45.448],[-81.808,45.436],[-81.734,45.473],[-81.702,45.531]]],[[[-82.953,45.69],[-82.972,45.691],[-82.976,45.666],[-82.944,45.634],[-82.933,45.668],[-82.953,45.69]]],[[[-81.463,45.575],[-81.473,45.575],[-81.485,45.558],[-81.463,45.549],[-81.453,45.565],[-81.463,45.575]]],[[[-82.98,45.765],[-83.0,45.765],[-83.01,45.75],[-82.987,45.739],[-82.98,45.765]]],[[[-83.355,45.993],[-83.356,45.996],[-83.41,45.986],[-83.441,45.946],[-83.471,45.935],[-83.477,45.901],[-83.493,45.895],[-83.477,45.873],[-83.475,45.893],[-83.452,45.896],[-83.348,45.85],[-83.265,45.905],[-83.266,45.958],[-83.326,45.96],[-83.355,45.993]]],[[[-81.746,45.937],[-81.752,45.936],[-81.79,45.93],[-81.739,45.924],[-81.746,45.937]]],[[[-81.854,45.973],[-81.86,45.97],[-81.882,45.904],[-81.832,45.935],[-81.854,45.973]]],[[[-81.935,45.987],[-81.935,45.989],[-82.066,45.956],[-82.051,45.952],[-82.122,45.913],[-82.112,45.892],[-82.158,45.827],[-82.177,45.847],[-82.172,45.873],[-82.223,45.918],[-82.208,45.943],[-82.232,45.944],[-82.258,45.909],[-82.289,45.929],[-82.29,45.991],[-82.437,45.957],[-82.461,45.913],[-82.487,45.947],[-82.515,45.906],[-82.589,45.9],[-82.568,45.915],[-82.571,45.956],[-82.617,45.971],[-82.694,45.958],[-82.711,45.943],[-82.704,45.924],[-82.737,45.927],[-82.728,45.908],[-82.679,45.891],[-82.587,45.9],[-82.596,45.88],[-82.544,45.86],[-82.552,45.83],[-82.539,45.854],[-82.505,45.853],[-82.507,45.812],[-82.54,45.78],[-82.552,45.83],[-82.583,45.816],[-82.591,45.849],[-82.637,45.823],[-82.652,45.859],[-82.672,45.865],[-82.758,45.834],[-82.768,45.885],[-82.806,45.878],[-82.841,45.91],[-82.8,45.978],[-82.81,45.998],[-82.857,45.965],[-82.938,45.961],[-82.945,45.94],[-82.991,45.921],[-83.006,45.945],[-83.056,45.959],[-83.081,45.914],[-83.108,45.915],[-83.124,45.955],[-83.178,45.96],[-83.215,45.928],[-83.226,45.885],[-83.17,45.861],[-83.096,45.868],[-83.053,45.834],[-83.039,45.85],[-82.995,45.84],[-83.011,45.829],[-82.99,45.823],[-82.957,45.837],[-82.937,45.823],[-82.954,45.806],[-82.936,45.823],[-82.915,45.797],[-82.876,45.8],[-82.882,45.79],[-82.868,45.784],[-82.835,45.814],[-82.818,45.791],[-82.79,45.8],[-82.758,45.777],[-82.742,45.797],[-82.711,45.775],[-82.692,45.791],[-82.634,45.756],[-82.52,45.749],[-82.513,45.73],[-82.482,45.723],[-82.48,45.705],[-82.335,45.692],[-82.316,45.667],[-82.276,45.67],[-82.264,45.662],[-82.275,45.65],[-82.218,45.639],[-82.19,45.608],[-82.1,45.599],[-82.093,45.585],[-82.13,45.575],[-82.074,45.577],[-82.077,45.553],[-82.01,45.558],[-82.012,45.584],[-81.966,45.611],[-81.933,45.61],[-81.891,45.657],[-81.851,45.667],[-81.844,45.687],[-81.747,45.694],[-81.762,45.685],[-81.746,45.674],[-81.879,45.604],[-81.888,45.569],[-81.909,45.573],[-81.907,45.6],[-82.013,45.554],[-81.987,45.558],[-81.958,45.538],[-81.936,45.571],[-81.946,45.554],[-81.925,45.566],[-81.916,45.555],[-81.928,45.544],[-81.845,45.515],[-81.798,45.533],[-81.759,45.584],[-81.716,45.609],[-81.726,45.613],[-81.704,45.644],[-81.648,45.687],[-81.669,45.707],[-81.591,45.755],[-81.579,45.803],[-81.71,45.79],[-81.714,45.804],[-81.668,45.827],[-81.648,45.861],[-81.651,45.901],[-81.686,45.901],[-81.787,45.782],[-81.775,45.737],[-81.799,45.723],[-81.844,45.792],[-81.815,45.867],[-81.918,45.889],[-81.897,45.905],[-81.886,45.963],[-81.899,45.955],[-81.902,45.976],[-81.935,45.987]]],[[[-81.57,45.965],[-81.586,45.965],[-81.618,45.948],[-81.623,45.926],[-81.602,45.928],[-81.57,45.965]]],[[[-81.532,45.974],[-81.537,45.967],[-81.525,45.95],[-81.497,45.964],[-81.532,45.974]]],[[[-82.226,46.055],[-82.238,46.055],[-82.257,46.032],[-82.244,46.031],[-82.272,46.022],[-82.254,46.002],[-82.23,46.012],[-82.221,45.996],[-82.233,45.991],[-82.203,45.983],[-82.196,46.009],[-82.211,46.022],[-82.2,46.029],[-82.213,46.035],[-82.193,46.036],[-82.226,46.055]]],[[[-82.027,46.042],[-82.047,46.041],[-82.072,46.021],[-82.057,46.013],[-82.074,46.008],[-82.03,46.013],[-82.027,46.042]]],[[[-81.981,46.039],[-82.0,46.033],[-82.029,46.008],[-81.988,46.015],[-81.981,46.039]]],[[[-81.006,45.946],[-81.013,45.946],[-81.032,45.931],[-81.001,45.941],[-81.018,45.928],[-80.985,45.925],[-80.979,45.939],[-81.006,45.946]],[[-80.804,45.919],[-80.801,45.923],[-80.81,45.906],[-80.804,45.919]]],[[[-81.818,46.063],[-81.858,46.061],[-81.848,46.058],[-81.859,46.043],[-81.866,46.059],[-81.957,46.047],[-81.966,46.007],[-81.9,45.988],[-81.923,45.982],[-81.857,46.002],[-81.823,45.994],[-81.811,45.972],[-81.769,45.991],[-81.736,45.972],[-81.747,46.008],[-81.729,46.004],[-81.747,46.014],[-81.767,45.991],[-81.785,45.999],[-81.776,46.017],[-81.811,46.022],[-81.79,46.05],[-81.821,46.049],[-81.818,46.063]]],[[[-81.157,46.0],[-81.175,46.001],[-81.217,45.996],[-81.256,45.967],[-81.236,45.992],[-81.369,45.992],[-81.396,45.98],[-81.361,45.986],[-81.368,45.974],[-81.342,45.966],[-81.32,45.982],[-81.308,45.966],[-81.285,45.975],[-81.296,45.96],[-81.279,45.95],[-81.222,45.966],[-81.215,45.949],[-81.2,45.955],[-81.201,45.979],[-81.179,45.977],[-81.157,46.0]]],[[[-81.608,46.07],[-81.632,46.071],[-81.641,46.065],[-81.615,46.065],[-81.629,46.051],[-81.606,46.051],[-81.608,46.07]]],[[[-81.604,46.099],[-81.632,46.094],[-81.609,46.096],[-81.633,46.092],[-81.595,46.068],[-81.544,46.085],[-81.604,46.099]]]]}},{"type":"Feature","properties":{"id":2262,"name":"Thunder Bay District Health Unit"},"geometry":{"type":"MultiPolygon","coordinates":[[[[-88.874,56.862],[-88.901,56.859],[-88.89,56.86],[-88.98,56.851],[-89.149,56.75],[-90.076,56.182],[-91.0,55.591],[-91.0,53.944],[-90.837,53.946],[-90.834,53.908],[-90.852,53.897],[-90.837,53.882],[-90.854,53.865],[-90.833,53.866],[-90.865,53.856],[-90.875,53.832],[-91.0,53.834],[-91.0,52.497],[-89.506,52.495],[-89.512,51.304],[-89.58,51.274],[-89.58,51.25],[-89.615,51.257],[-89.681,51.226],[-89.794,51.217],[-89.918,51.166],[-89.969,51.174],[-89.979,51.151],[-90.051,51.13],[-90.081,51.152],[-90.167,51.134],[-90.171,49.997],[-90.966,49.996],[-90.965,48.234],[-90.924,48.266],[-90.785,48.294],[-90.799,48.277],[-90.816,48.286],[-90.796,48.292],[-90.836,48.283],[-90.824,48.266],[-90.842,48.258],[-90.837,48.275],[-90.851,48.278],[-90.841,48.271],[-90.856,48.272],[-90.859,48.256],[-90.835,48.239],[-90.844,48.25],[-90.828,48.256],[-90.825,48.24],[-90.788,48.267],[-90.8,48.252],[-90.788,48.245],[-90.804,48.25],[-90.823,48.222],[-90.839,48.23],[-90.833,48.199],[-90.816,48.208],[-90.809,48.195],[-90.83,48.199],[-90.817,48.196],[-90.835,48.177],[-90.801,48.186],[-90.797,48.16],[-90.752,48.154],[-90.796,48.136],[-90.765,48.108],[-90.738,48.109],[-90.761,48.098],[-90.548,48.132],[-90.47,48.131],[-90.564,48.099],[-90.42,48.113],[-90.374,48.091],[-90.247,48.115],[-90.19,48.109],[-90.188,48.121],[-89.999,48.086],[-90.013,48.07],[-89.957,48.053],[-89.996,48.04],[-89.995,48.029],[-89.934,48.016],[-89.897,47.988],[-89.775,48.023],[-89.65,48.004],[-89.611,48.018],[-89.573,47.998],[-89.579,48.009],[-89.503,48.027],[-89.509,48.042],[-89.454,48.037],[-89.481,48.054],[-89.402,48.07],[-89.469,48.064],[-89.431,48.08],[-89.44,48.086],[-89.345,48.094],[-89.326,48.111],[-89.357,48.114],[-89.302,48.139],[-89.321,48.151],[-89.283,48.175],[-89.312,48.184],[-89.308,48.2],[-89.292,48.203],[-89.305,48.185],[-89.265,48.195],[-89.277,48.202],[-89.273,48.237],[-89.236,48.285],[-89.239,48.304],[-89.197,48.311],[-89.214,48.353],[-89.253,48.368],[-89.212,48.395],[-89.231,48.409],[-89.218,48.433],[-89.142,48.481],[-88.928,48.519],[-88.909,48.542],[-88.871,48.54],[-88.846,48.56],[-88.772,48.575],[-88.753,48.556],[-88.838,48.46],[-88.828,48.452],[-88.873,48.376],[-88.863,48.364],[-88.9,48.364],[-88.939,48.303],[-88.91,48.323],[-88.894,48.312],[-88.734,48.357],[-88.743,48.365],[-88.717,48.382],[-88.682,48.466],[-88.699,48.487],[-88.662,48.488],[-88.634,48.51],[-88.65,48.52],[-88.622,48.585],[-88.629,48.607],[-88.534,48.645],[-88.551,48.654],[-88.542,48.668],[-88.554,48.683],[-88.512,48.702],[-88.551,48.737],[-88.546,48.766],[-88.486,48.817],[-88.487,48.839],[-88.499,48.835],[-88.479,48.846],[-88.342,48.821],[-88.325,48.802],[-88.343,48.781],[-88.301,48.757],[-88.339,48.673],[-88.551,48.54],[-88.563,48.505],[-88.596,48.479],[-88.566,48.486],[-88.578,48.454],[-88.553,48.435],[-88.56,48.41],[-88.522,48.429],[-88.516,48.465],[-88.483,48.464],[-88.497,48.502],[-88.483,48.522],[-88.466,48.512],[-88.427,48.568],[-88.416,48.572],[-88.418,48.537],[-88.39,48.545],[-88.399,48.525],[-88.341,48.572],[-88.325,48.552],[-88.318,48.574],[-88.304,48.567],[-88.3,48.582],[-88.332,48.589],[-88.34,48.646],[-88.322,48.647],[-88.284,48.59],[-88.25,48.621],[-88.22,48.625],[-88.24,48.62],[-88.258,48.577],[-88.209,48.601],[-88.195,48.59],[-88.194,48.618],[-88.098,48.701],[-88.108,48.746],[-88.092,48.776],[-88.108,48.799],[-88.228,48.841],[-88.246,48.877],[-88.226,48.926],[-88.259,48.962],[-88.192,48.968],[-88.167,48.954],[-88.113,48.999],[-88.075,49.0],[-88.088,48.993],[-88.07,48.98],[-88.04,49.02],[-88.021,49.007],[-88.038,48.981],[-88.015,48.983],[-88.008,48.966],[-87.934,48.93],[-87.885,48.94],[-87.834,48.909],[-87.784,48.926],[-87.768,48.893],[-87.732,48.909],[-87.672,48.898],[-87.646,48.856],[-87.544,48.878],[-87.548,48.825],[-87.421,48.838],[-87.389,48.806],[-87.292,48.794],[-87.303,48.769],[-87.27,48.759],[-87.261,48.769],[-87.205,48.756],[-87.17,48.787],[-87.121,48.765],[-87.028,48.794],[-87.007,48.772],[-87.003,48.815],[-86.978,48.805],[-86.958,48.819],[-86.975,48.798],[-86.954,48.778],[-86.897,48.772],[-86.865,48.745],[-86.796,48.781],[-86.766,48.775],[-86.742,48.797],[-86.732,48.788],[-86.704,48.811],[-86.69,48.791],[-86.616,48.781],[-86.636,48.73],[-86.544,48.724],[-86.538,48.759],[-86.528,48.748],[-86.486,48.776],[-86.48,48.758],[-86.429,48.774],[-86.419,48.755],[-86.447,48.736],[-86.403,48.751],[-86.385,48.725],[-86.409,48.715],[-86.342,48.653],[-86.358,48.65],[-86.303,48.652],[-86.34,48.613],[-86.302,48.601],[-86.306,48.588],[-86.271,48.591],[-86.298,48.58],[-86.251,48.579],[-86.282,48.572],[-86.267,48.565],[-86.269,48.539],[-86.243,48.5],[-86.254,48.496],[-86.232,48.467],[-86.22,48.429],[-86.237,48.426],[-86.211,48.398],[-86.182,48.394],[-86.204,48.378],[-86.178,48.359],[-86.189,48.342],[-86.131,48.263],[-86.144,48.243],[-86.098,48.205],[-86.112,48.2],[-86.103,48.185],[-86.032,48.106],[-85.979,48.082],[-86.031,48.09],[-86.026,48.081],[-85.93,48.043],[-85.947,48.038],[-85.944,48.023],[-85.91,48.025],[-85.907,48.009],[-85.876,48.004],[-85.893,48.002],[-85.883,47.988],[-85.771,47.942],[-85.565,47.917],[-85.383,47.923],[-85.33,47.949],[-85.333,49.97],[-86.549,49.97],[-86.56,52.497],[-86.549,54.999],[-86.996,54.992],[-86.998,55.918],[-87.215,55.933],[-87.326,55.966],[-87.361,55.955],[-87.356,55.975],[-87.373,55.99],[-87.5,56.018],[-87.466,56.027],[-87.473,56.049],[-87.581,56.052],[-87.592,56.058],[-87.568,56.069],[-87.657,56.107],[-87.636,56.108],[-87.713,56.193],[-87.714,56.217],[-87.841,56.346],[-87.812,56.334],[-87.924,56.392],[-87.979,56.473],[-88.258,56.531],[-88.437,56.605],[-88.504,56.656],[-88.659,56.696],[-88.689,56.752],[-88.805,56.795],[-88.885,56.788],[-88.812,56.799],[-88.825,56.806],[-88.808,56.815],[-88.818,56.839],[-88.801,56.825],[-88.844,56.848],[-88.829,56.841],[-88.857,56.826],[-88.874,56.862]]],[[[-85.793,47.353],[-85.8,47.372],[-85.813,47.389],[-85.825,47.352],[-85.806,47.339],[-85.793,47.353]]],[[[-85.743,47.798],[-85.764,47.796],[-85.858,47.789],[-85.959,47.731],[-85.95,47.717],[-85.848,47.703],[-85.77,47.721],[-85.797,47.707],[-85.727,47.704],[-85.596,47.745],[-85.629,47.768],[-85.695,47.774],[-85.743,47.798]]],[[[-89.231,48.225],[-89.236,48.227],[-89.246,48.204],[-89.221,48.212],[-89.231,48.225]]],[[[-89.07,48.273],[-89.103,48.266],[-89.143,48.258],[-89.175,48.223],[-89.161,48.212],[-89.118,48.222],[-89.121,48.207],[-89.027,48.247],[-89.07,48.273]]],[[[-89.211,48.376],[-89.243,48.377],[-89.216,48.357],[-89.211,48.376]]],[[[-88.587,48.422],[-88.585,48.424],[-88.65,48.4],[-88.654,48.39],[-88.634,48.393],[-88.653,48.358],[-88.603,48.384],[-88.587,48.422]]],[[[-88.295,48.558],[-88.3,48.556],[-88.3,48.526],[-88.283,48.547],[-88.295,48.558]]],[[[-88.082,48.698],[-88.087,48.702],[-88.1,48.683],[-88.088,48.673],[-88.117,48.66],[-88.12,48.636],[-88.057,48.678],[-88.082,48.698]]],[[[-86.995,48.677],[-86.997,48.677],[-86.987,48.668],[-87.029,48.649],[-87.021,48.666],[-87.055,48.655],[-87.058,48.641],[-87.024,48.624],[-86.989,48.633],[-87.005,48.62],[-86.957,48.633],[-86.96,48.664],[-86.995,48.677]]],[[[-87.0,48.692],[-87.032,48.688],[-87.076,48.669],[-87.027,48.686],[-86.983,48.678],[-87.0,48.692]]],[[[-86.635,48.723],[-86.639,48.718],[-86.643,48.705],[-86.659,48.713],[-86.654,48.696],[-86.616,48.705],[-86.591,48.69],[-86.598,48.71],[-86.635,48.723]]],[[[-87.402,48.78],[-87.434,48.779],[-87.394,48.754],[-87.352,48.756],[-87.402,48.78]]],[[[-87.516,48.798],[-87.523,48.798],[-87.506,48.765],[-87.485,48.766],[-87.495,48.757],[-87.459,48.753],[-87.443,48.775],[-87.46,48.791],[-87.516,48.798]]],[[[-87.585,48.807],[-87.596,48.807],[-87.584,48.774],[-87.559,48.774],[-87.56,48.788],[-87.536,48.78],[-87.585,48.807]]],[[[-87.7,48.843],[-87.728,48.84],[-87.746,48.834],[-87.749,48.813],[-87.712,48.775],[-87.756,48.756],[-87.718,48.755],[-87.692,48.737],[-87.62,48.746],[-87.626,48.756],[-87.595,48.748],[-87.7,48.843]]],[[[-87.925,48.858],[-87.929,48.861],[-87.985,48.855],[-88.089,48.806],[-88.073,48.773],[-88.085,48.735],[-88.069,48.7],[-88.011,48.689],[-88.021,48.721],[-87.965,48.754],[-87.899,48.763],[-87.819,48.739],[-87.789,48.755],[-87.808,48.791],[-87.781,48.774],[-87.753,48.783],[-87.758,48.837],[-87.925,48.858]]],[[[-88.127,48.934],[-88.154,48.935],[-88.151,48.919],[-88.123,48.912],[-88.114,48.922],[-88.127,48.934]]],[[[-88.056,48.948],[-88.079,48.947],[-88.099,48.929],[-88.018,48.891],[-88.026,48.935],[-88.056,48.948]]]]}},{"type":"Feature","properties":{"id":2265,"name":"Region of Waterloo Public Health and Paramedic Services"},"geometry":{"type":"MultiPolygon","coordinates":[[[[-80.386,43.566],[-80.558,43.69],[-80.595,43.662],[-80.608,43.589],[-80.755,43.648],[-80.869,43.498],[-80.796,43.468],[-80.737,43.408],[-80.735,43.311],[-80.504,43.348],[-80.472,43.267],[-80.238,43.307],[-80.248,43.334],[-80.188,43.343],[-80.205,43.398],[-80.27,43.387],[-80.306,43.472],[-80.374,43.533],[-80.367,43.569],[-80.386,43.566]]]]}},{"type":"Feature","properties":{"id":2266,"name":"Wellington-Dufferin-Guelph Public Health"},"geometry":{"type":"MultiPolygon","coordinates":[[[[-80.014,44.213],[-80.034,44.295],[-80.411,44.215],[-80.423,44.2],[-80.361,44.167],[-80.398,44.135],[-80.375,44.039],[-80.716,43.981],[-80.747,44.002],[-80.754,43.977],[-80.827,43.968],[-80.836,44.005],[-80.992,43.986],[-80.954,43.822],[-80.859,43.833],[-80.849,43.823],[-80.761,43.845],[-80.874,43.699],[-80.608,43.589],[-80.595,43.662],[-80.558,43.69],[-80.383,43.564],[-80.367,43.569],[-80.374,43.533],[-80.306,43.472],[-80.27,43.387],[-80.079,43.418],[-80.084,43.435],[-80.034,43.471],[-80.16,43.561],[-79.969,43.734],[-80.144,43.865],[-80.083,43.922],[-79.951,43.951],[-80.014,44.213]]]]}},{"type":"Feature","properties":{"id":2268,"name":"Windsor-Essex County Health Unit"},"geometry":{"type":"MultiPolygon","coordinates":[[[[-82.437,42.316],[-82.458,42.319],[-82.472,42.309],[-82.459,42.308],[-82.567,42.315],[-82.725,42.297],[-82.94,42.343],[-83.059,42.316],[-83.109,42.257],[-83.096,42.189],[-83.11,42.179],[-83.098,42.169],[-83.106,42.182],[-83.116,42.165],[-83.098,42.168],[-83.087,42.193],[-83.089,42.18],[-83.042,42.205],[-83.058,42.192],[-83.031,42.173],[-83.061,42.191],[-83.089,42.177],[-83.069,42.16],[-83.089,42.175],[-83.107,42.163],[-83.116,42.055],[-83.047,42.032],[-83.085,42.052],[-83.082,42.062],[-83.055,42.038],[-83.077,42.064],[-83.101,42.067],[-83.078,42.066],[-83.083,42.079],[-83.038,42.043],[-83.05,42.032],[-82.924,41.981],[-82.718,42.032],[-82.612,42.032],[-82.545,41.982],[-82.509,41.909],[-82.501,41.986],[-82.465,42.062],[-82.456,42.194],[-82.437,42.194],[-82.433,42.247],[-82.451,42.262],[-82.431,42.28],[-82.437,42.316]]],[[[-82.639,41.832],[-82.637,41.827],[-82.688,41.813],[-82.692,41.764],[-82.672,41.724],[-82.659,41.743],[-82.621,41.751],[-82.639,41.832]],[[-83.124,42.119],[-83.123,42.12],[-83.126,42.109],[-83.124,42.119]]],[[[-83.116,42.244],[-83.122,42.243],[-83.115,42.19],[-83.116,42.244]]]]}},{"type":"Feature","properties":{"id":2270,"name":"York Region Public Health"},"geometry":{"type":"MultiPolygon","coordinates":[[[[-79.25,44.454],[-79.242,44.46],[-79.509,44.422],[-79.514,44.176],[-79.545,44.137],[-79.557,44.076],[-79.616,44.047],[-79.624,44.026],[-79.775,43.99],[-79.639,43.75],[-79.17,43.855],[-79.328,44.223],[-79.156,44.263],[-79.25,44.454]]]]}},{"type":"Feature","properties":{"id":3895,"name":"Toronto Public Health"},"geometry":{"type":"MultiPolygon","coordinates":[[[[-79.152,43.814],[-79.17,43.855],[-79.639,43.75],[-79.589,43.665],[-79.609,43.646],[-79.564,43.628],[-79.567,43.609],[-79.538,43.579],[-79.509,43.587],[-79.46,43.637],[-79.415,43.626],[-79.325,43.654],[-79.353,43.638],[-79.33,43.649],[-79.337,43.629],[-79.323,43.626],[-79.318,43.661],[-79.278,43.672],[-79.115,43.795],[-79.152,43.814]]]]}},{"type":"Feature","properties":{"id":4913,"name":"Southwestern Public Health"},"geometry":{"type":"MultiPolygon","coordinates":[[[[-80.476,43.279],[-80.504,43.348],[-80.735,43.311],[-80.736,43.353],[-81.132,43.231],[-81.038,43.046],[-81.023,43.05],[-80.984,42.986],[-80.947,43.01],[-80.923,43.001],[-80.899,42.913],[-81.12,42.891],[-81.115,42.871],[-81.435,42.794],[-81.419,42.774],[-81.481,42.784],[-81.474,42.753],[-81.517,42.766],[-81.542,42.739],[-81.569,42.746],[-81.566,42.734],[-81.603,42.727],[-81.6,42.712],[-81.628,42.683],[-81.686,42.697],[-81.682,42.673],[-81.717,42.666],[-81.702,42.639],[-81.737,42.662],[-81.774,42.648],[-81.806,42.61],[-81.835,42.608],[-81.669,42.473],[-81.522,42.57],[-81.399,42.606],[-81.342,42.645],[-81.262,42.662],[-80.907,42.66],[-80.721,42.62],[-80.717,42.788],[-80.745,42.824],[-80.727,42.846],[-80.715,42.83],[-80.705,42.855],[-80.505,42.884],[-80.609,43.152],[-80.436,43.179],[-80.476,43.279]]]]}},{"type":"Feature","properties":{"id":5183,"name":"Huron Perth Public Health"},"geometry":{"type":"MultiPolygon","coordinates":[[[[-80.974,43.909],[-80.992,43.986],[-81.368,43.927],[-81.384,43.908],[-81.746,44.054],[-81.721,43.93],[-81.719,43.782],[-81.733,43.749],[-81.717,43.747],[-81.73,43.745],[-81.729,43.697],[-81.706,43.563],[-81.71,43.398],[-81.76,43.319],[-81.743,43.311],[-81.763,43.293],[-81.774,43.238],[-81.465,43.271],[-81.469,43.289],[-81.431,43.293],[-81.224,43.203],[-80.736,43.353],[-80.738,43.408],[-80.796,43.468],[-80.869,43.498],[-80.755,43.648],[-80.874,43.699],[-80.761,43.845],[-80.849,43.823],[-80.859,43.833],[-80.954,43.822],[-80.974,43.909]]]]}},{"type":"Feature","properties":{"id":7652,"name":"Grand Erie Public Health"},"geometry":{"type":"MultiPolygon","coordinates":[[[[-80.231,43.287],[-80.238,43.307],[-80.472,43.267],[-80.436,43.179],[-80.609,43.152],[-80.505,42.884],[-80.705,42.855],[-80.715,42.83],[-80.727,42.846],[-80.745,42.824],[-80.717,42.788],[-80.721,42.62],[-80.613,42.58],[-80.332,42.57],[-80.403,42.591],[-80.44,42.579],[-80.454,42.616],[-80.356,42.684],[-80.345,42.656],[-80.333,42.661],[-80.326,42.694],[-80.224,42.781],[-80.044,42.795],[-80.029,42.808],[-79.982,42.792],[-79.96,42.81],[-79.841,42.822],[-79.703,42.861],[-79.639,42.835],[-79.588,42.858],[-79.545,42.84],[-79.529,42.854],[-79.484,42.841],[-79.438,42.876],[-79.512,42.965],[-80.2,43.211],[-80.231,43.287]]],[[[-80.044,42.549],[-80.065,42.549],[-80.045,42.548],[-80.308,42.564],[-80.15,42.539],[-80.044,42.549]]]]}},{"type":"Feature","properties":{"id":7653,"name":"Lakelands Public Health"},"geometry":{"type":"MultiPolygon","coordinates":[[[[-78.146,45.25],[-78.315,45.561],[-78.971,45.384],[-78.882,45.215],[-78.868,45.213],[-78.871,45.178],[-78.843,45.145],[-79.001,45.105],[-78.934,44.986],[-79.094,44.943],[-79.119,44.95],[-79.063,44.84],[-79.209,44.8],[-78.922,44.154],[-78.911,44.193],[-78.883,44.217],[-78.852,44.213],[-78.842,44.169],[-78.77,44.227],[-78.693,44.058],[-78.516,44.099],[-78.437,43.912],[-78.256,43.953],[-77.877,43.975],[-77.783,44.008],[-77.749,44.01],[-77.733,43.988],[-77.704,43.989],[-77.675,43.998],[-77.723,43.994],[-77.715,44.005],[-77.742,44.012],[-77.716,44.032],[-77.661,44.037],[-77.754,44.239],[-77.683,44.263],[-77.64,44.249],[-77.646,44.272],[-77.829,44.63],[-77.884,44.77],[-78.146,45.25]]],[[[-77.659,44.032],[-77.661,44.037],[-77.693,44.019],[-77.654,44.022],[-77.659,44.032]]]]}},{"type":"Feature","properties":{"id":7654,"name":"Northeastern Public Health"},"geometry":{"type":"MultiPolygon","coordinates":[[[[-86.952,55.912],[-86.949,55.914],[-86.998,55.918],[-86.996,54.992],[-86.549,54.999],[-86.56,52.497],[-86.549,49.97],[-85.333,49.97],[-85.333,49.055],[-84.616,49.073],[-82.639,49.064],[-82.641,48.451],[-81.857,48.45],[-81.857,48.104],[-81.074,48.103],[-81.073,47.322],[-80.272,47.32],[-80.274,47.056],[-80.289,47.056],[-80.291,46.972],[-80.224,46.972],[-80.227,46.799],[-79.884,46.799],[-79.885,46.712],[-79.759,46.711],[-79.757,46.799],[-79.626,46.799],[-79.632,47.058],[-79.41,47.06],[-79.443,47.101],[-79.427,47.25],[-79.587,47.433],[-79.553,47.511],[-79.51,47.544],[-79.516,51.461],[-79.579,51.474],[-79.579,51.451],[-79.606,51.439],[-79.615,51.416],[-79.681,51.408],[-79.677,51.338],[-79.7,51.36],[-79.712,51.346],[-79.712,51.383],[-79.732,51.371],[-79.725,51.356],[-79.745,51.329],[-79.694,51.299],[-79.694,51.267],[-79.672,51.256],[-79.725,51.238],[-79.786,51.172],[-79.773,51.156],[-79.784,51.152],[-79.885,51.171],[-79.995,51.249],[-80.055,51.258],[-80.113,51.291],[-80.293,51.307],[-80.382,51.338],[-80.397,51.329],[-80.426,51.35],[-80.421,51.372],[-80.439,51.373],[-80.427,51.45],[-80.439,51.48],[-80.513,51.548],[-80.569,51.673],[-80.57,51.708],[-80.641,51.763],[-80.657,51.793],[-80.686,51.798],[-80.688,51.848],[-80.695,51.821],[-80.719,51.819],[-80.753,51.844],[-80.752,51.858],[-80.787,51.858],[-80.793,51.888],[-80.822,51.877],[-80.883,51.894],[-80.972,52.002],[-81.072,52.036],[-81.08,52.059],[-81.108,52.052],[-81.11,52.037],[-81.152,52.038],[-81.178,52.056],[-81.344,52.097],[-81.412,52.14],[-81.403,52.146],[-81.425,52.145],[-81.405,52.157],[-81.474,52.218],[-81.608,52.227],[-81.537,52.249],[-81.554,52.239],[-81.436,52.231],[-81.494,52.247],[-81.458,52.249],[-81.492,52.278],[-81.561,52.295],[-81.506,52.325],[-81.544,52.363],[-81.537,52.392],[-81.602,52.398],[-81.532,52.395],[-81.532,52.443],[-81.638,52.492],[-81.761,52.607],[-81.78,52.605],[-81.767,52.61],[-81.882,52.668],[-81.919,52.705],[-81.938,52.769],[-82.08,52.761],[-82.204,52.774],[-81.943,52.774],[-82.11,52.891],[-82.152,52.895],[-82.182,52.873],[-82.187,52.851],[-82.208,52.847],[-82.159,52.902],[-82.226,52.927],[-82.335,52.91],[-82.235,52.93],[-82.252,52.957],[-82.353,52.938],[-82.281,52.967],[-82.33,52.964],[-82.258,52.974],[-82.265,52.996],[-82.293,53.001],[-82.274,53.008],[-82.292,53.019],[-82.277,53.022],[-82.293,53.071],[-82.292,53.081],[-82.282,53.065],[-82.272,53.111],[-82.284,53.086],[-82.284,53.135],[-82.279,53.117],[-82.258,53.172],[-82.216,53.217],[-82.108,53.273],[-82.132,53.379],[-82.166,53.473],[-82.206,53.524],[-82.202,53.572],[-82.218,53.59],[-82.201,53.656],[-82.127,53.756],[-82.123,53.818],[-82.192,53.95],[-82.186,53.98],[-82.252,54.06],[-82.296,54.099],[-82.327,54.104],[-82.333,54.121],[-82.43,54.091],[-82.5,54.095],[-82.429,54.092],[-82.346,54.128],[-82.361,54.124],[-82.349,54.132],[-82.409,54.193],[-82.5,54.204],[-82.423,54.212],[-82.421,54.238],[-82.438,54.255],[-82.422,54.339],[-82.447,54.36],[-82.411,54.36],[-82.347,54.496],[-82.322,54.504],[-82.288,54.654],[-82.195,54.804],[-82.216,54.88],[-82.211,54.87],[-82.236,54.863],[-82.262,54.896],[-82.256,54.916],[-82.234,54.913],[-82.251,54.897],[-82.224,54.91],[-82.249,54.935],[-82.267,54.932],[-82.253,54.937],[-82.256,54.973],[-82.277,55.039],[-82.245,55.063],[-82.252,55.11],[-82.287,55.124],[-82.278,55.117],[-82.296,55.114],[-82.331,55.15],[-82.308,55.107],[-82.334,55.097],[-82.307,55.053],[-82.416,55.077],[-82.407,55.101],[-82.453,55.127],[-82.454,55.106],[-82.46,55.122],[-82.472,55.101],[-82.51,55.132],[-82.476,55.125],[-82.51,55.15],[-82.533,55.148],[-82.511,55.128],[-82.552,55.122],[-82.589,55.149],[-82.638,55.146],[-82.66,55.166],[-82.626,55.162],[-82.674,55.182],[-82.663,55.166],[-82.716,55.161],[-82.699,55.138],[-82.797,55.128],[-82.883,55.146],[-82.915,55.204],[-82.954,55.224],[-83.154,55.196],[-83.257,55.216],[-83.249,55.209],[-83.338,55.199],[-83.417,55.223],[-83.469,55.216],[-83.673,55.27],[-83.704,55.258],[-83.643,55.22],[-83.72,55.25],[-83.696,55.223],[-83.755,55.256],[-83.893,55.295],[-83.976,55.287],[-84.078,55.25],[-84.199,55.279],[-84.251,55.264],[-84.307,55.275],[-84.544,55.224],[-84.569,55.237],[-84.769,55.231],[-84.826,55.25],[-84.852,55.24],[-84.836,55.252],[-84.86,55.241],[-84.853,55.255],[-84.902,55.25],[-84.903,55.269],[-84.972,55.28],[-85.113,55.259],[-85.134,55.273],[-85.11,55.292],[-85.122,55.336],[-85.209,55.344],[-85.234,55.374],[-85.36,55.378],[-85.367,55.394],[-85.479,55.437],[-85.456,55.435],[-85.583,55.502],[-85.589,55.526],[-85.625,55.533],[-85.642,55.558],[-85.861,55.625],[-85.896,55.656],[-86.269,55.708],[-86.382,55.767],[-86.686,55.836],[-86.764,55.87],[-86.785,55.858],[-86.788,55.876],[-86.901,55.914],[-86.952,55.912]]]]}},{"type":"Feature","properties":{"id":7655,"name":"Southeast Public Health"},"geometry":{"type":"MultiPolygon","coordinates":[[[[-76.216,45.302],[-76.354,45.411],[-76.77,45.142],[-76.815,45.221],[-76.895,45.194],[-76.938,45.211],[-76.992,45.184],[-76.971,45.145],[-77.137,45.099],[-77.216,45.237],[-77.544,45.144],[-77.691,45.438],[-78.178,45.31],[-77.884,44.77],[-77.829,44.63],[-77.646,44.272],[-77.64,44.249],[-77.683,44.263],[-77.754,44.239],[-77.661,44.037],[-77.582,44.061],[-77.603,44.066],[-77.572,44.1],[-77.526,44.101],[-77.385,44.16],[-77.32,44.168],[-77.318,44.153],[-77.296,44.153],[-77.255,44.18],[-77.217,44.174],[-77.214,44.155],[-77.148,44.162],[-77.023,44.199],[-77.019,44.184],[-77.039,44.176],[-77.064,44.129],[-77.063,44.104],[-76.957,44.156],[-76.963,44.17],[-76.883,44.173],[-76.894,44.164],[-76.885,44.155],[-76.985,44.143],[-77.006,44.134],[-77.016,44.104],[-77.077,44.084],[-77.061,44.076],[-77.07,44.066],[-77.02,44.075],[-77.059,44.053],[-77.021,44.051],[-76.969,44.064],[-76.928,44.105],[-76.774,44.183],[-76.632,44.222],[-76.609,44.241],[-76.597,44.239],[-76.615,44.232],[-76.609,44.214],[-76.549,44.208],[-76.546,44.22],[-76.432,44.235],[-76.227,44.321],[-76.194,44.304],[-76.048,44.369],[-76.067,44.345],[-75.937,44.376],[-75.804,44.504],[-75.537,44.698],[-75.481,44.723],[-75.426,44.777],[-75.375,44.785],[-75.361,44.801],[-75.629,45.126],[-75.618,45.104],[-75.643,45.068],[-75.82,44.962],[-75.953,45.072],[-75.941,45.08],[-75.973,45.108],[-76.216,45.302]]],[[[-76.963,44.003],[-76.973,44.003],[-76.988,43.992],[-76.981,43.977],[-76.963,44.003]]],[[[-77.065,44.173],[-77.073,44.174],[-77.18,44.146],[-77.21,44.119],[-77.196,44.143],[-77.289,44.116],[-77.291,44.093],[-77.231,44.101],[-77.264,44.085],[-77.344,44.085],[-77.308,44.119],[-77.327,44.126],[-77.304,44.132],[-77.308,44.146],[-77.373,44.128],[-77.385,44.144],[-77.497,44.107],[-77.575,44.052],[-77.661,44.037],[-77.642,44.02],[-77.627,44.033],[-77.571,44.032],[-77.587,44.016],[-77.521,44.003],[-77.573,43.981],[-77.603,44.017],[-77.612,44.008],[-77.516,43.941],[-77.484,43.96],[-77.507,43.943],[-77.496,43.926],[-77.289,43.959],[-77.302,43.939],[-77.247,43.96],[-77.247,43.942],[-77.278,43.931],[-77.261,43.93],[-77.274,43.911],[-77.338,43.947],[-77.28,43.892],[-77.243,43.904],[-77.222,43.893],[-77.215,43.883],[-77.245,43.857],[-77.179,43.869],[-77.155,43.839],[-76.933,43.927],[-76.94,43.918],[-76.86,43.933],[-76.865,43.948],[-76.938,43.93],[-77.007,43.942],[-77.033,43.914],[-77.053,43.919],[-77.042,43.95],[-76.997,43.986],[-77.027,43.991],[-76.9,44.034],[-76.899,44.058],[-76.844,44.093],[-76.851,44.115],[-76.993,44.039],[-77.109,44.043],[-77.137,44.009],[-77.138,44.034],[-77.08,44.095],[-77.065,44.173]],[[-77.164,43.945],[-77.158,43.938],[-77.189,43.923],[-77.209,43.889],[-77.232,43.906],[-77.164,43.945]]],[[[-76.642,44.192],[-76.665,44.185],[-76.724,44.174],[-76.813,44.128],[-76.78,44.119],[-76.786,44.101],[-76.71,44.117],[-76.703,44.103],[-76.676,44.143],[-76.619,44.18],[-76.642,44.192]]],[[[-76.505,44.184],[-76.526,44.182],[-76.556,44.151],[-76.494,44.179],[-76.505,44.184]]],[[[-76.184,44.239],[-76.191,44.238],[-76.233,44.224],[-76.251,44.234],[-76.289,44.216],[-76.281,44.234],[-76.306,44.221],[-76.334,44.237],[-76.367,44.223],[-76.398,44.232],[-76.397,44.215],[-76.446,44.205],[-76.417,44.199],[-76.506,44.167],[-76.511,44.134],[-76.449,44.146],[-76.491,44.105],[-76.458,44.117],[-76.436,44.105],[-76.442,44.095],[-76.354,44.135],[-76.383,44.141],[-76.336,44.184],[-76.36,44.18],[-76.368,44.197],[-76.398,44.202],[-76.234,44.208],[-76.184,44.239]]],[[[-76.205,44.305],[-76.226,44.3],[-76.252,44.3],[-76.254,44.285],[-76.283,44.274],[-76.257,44.299],[-76.281,44.299],[-76.355,44.251],[-76.338,44.261],[-76.347,44.248],[-76.295,44.249],[-76.216,44.28],[-76.195,44.301],[-76.205,44.305]]],[[[-75.933,44.364],[-75.955,44.358],[-75.997,44.35],[-75.97,44.343],[-75.933,44.364]]],[[[-75.846,44.435],[-75.852,44.433],[-75.907,44.384],[-75.84,44.423],[-75.846,44.435]]]]}}]}